{"title":"L'Atlantide 1874 - Maison Guého","address":"5 r. de l'Hermitage","postCode":"44100"}
{"title":"Le Bouche à Oreille","address":"11 r. de la Chapelle","postCode":"91150"}
{"title":"Stéphane Carbone","address":"14 r. de Courtonne","postCode":"14000"}
{"title":"L'Atelier du Peintre","address":"1 Rue Schongauer","postCode":"68000"}
{"title":"Château de Courban","address":"7 rue du Lavoir","postCode":"21520"}
{"title":"L'Auberge Basque","address":"quartier Helbarron","postCode":"64310"}
{"title":"Le Bénaton","address":"25 Rue du Faubourg-Bretonnière","postCode":"21200"}
{"title":"Pierre Gagnaire","address":"6 Rue Balzac","postCode":"75008"}
{"title":"Ivan Vautier","address":"3 avenue Henry-Chéron","postCode":"14000"}
{"title":"Le Kléber","address":"6 r. A. -Dumont","postCode":"26400"}
{"title":"Yoann Conte","address":"13 Vieille-Route-des-Pensières","postCode":"74290"}
{"title":"Auberge des Templiers","address":"D2007","postCode":"45290"}
{"title":"Michel Chabran - La Grande Table","address":"29 Avenue du Quarante-Cinquième Parallèle","postCode":"26600"}
{"title":"Maison Christian Étienne","address":"10 Rue de Mons","postCode":"84000"}
{"title":"Restaurant du Château","address":"15 avenue des Reynats","postCode":"24650"}
{"title":"Le Pavillon des Boulevards","address":"120 r. Croix-de-Seguey","postCode":"33000"}
{"title":"J.-M. Pérochon","address":"63 avenue de la Grand'Roche","postCode":"85470"}
{"title":"La Chaumière","address":"346 av. du Mar. -Juin","postCode":"39100"}
{"title":"Le Clarence","address":"31 Avenue Franklin Delano Roosevelt","postCode":"75008"}
{"title":"Raphaël Vionnet","address":"43 Avenue du Général Leclerc","postCode":"74200"}
{"title":"Ithurria","address":"pl. du Fronton","postCode":"64250"}
{"title":"Ô Flaveurs","address":"Château de Chilly","postCode":"74140"}
{"title":"Le Cerisier","address":"3 rue de la Gare","postCode":"62840"}
{"title":"Loiseau des Vignes","address":"31 Rue Jean Francois Maufoux","postCode":"21200"}
{"title":"Stéphane Derbord","address":"10 Place du Président Wilson","postCode":"21000"}
{"title":"Dyades au Domaine des Étangs","address":"Les Etangs","postCode":"16310"}
{"title":"Le Moulin de l'Abbaye","address":"1 avenue Pierre de Bourdeilles","postCode":"24310"}
{"title":"La Table de Patrick Raingeard","address":"1312 av. Raymond-Poincaré","postCode":"06360"}
{"title":"Le Pergolèse","address":"40, Rue Pergolèse","postCode":"75016"}
{"title":"Le Coquillage","address":"Lieu-dit Le Buot","postCode":"35350"}
{"title":"Auguste","address":"54 r. Bourgogne","postCode":"75007"}
{"title":"Chez Michèle","address":"57 rue Principale","postCode":"57810"}
{"title":"Au 14 Février","address":"Le Plâtre-Durand","postCode":"71570"}
{"title":"L'Essentiel","address":"29 Rue Mirabeau","postCode":"14800"}
{"title":"Relais de la Poste","address":"21 rue du Gén. -de-Gaulle","postCode":"67610"}
{"title":"En Marge","address":"1204 rte de la Croix-Falgarde","postCode":"31320"}
{"title":"La Coopérative","address":"2A Route de Caladroy","postCode":"66720"}
{"title":"La Merise","address":"7 r. d'Eschbach","postCode":"67580"}
{"title":"Sushi B","address":"5 r. Rameau","postCode":"75002"}
{"title":"Ken Kawasaki","address":"15 r. Caulaincourt","postCode":"75018"}
{"title":"Le Skiff Club","address":"1 av. Louis-Gaume","postCode":"33260"}
{"title":"Akrame","address":"7 r. Tronchet","postCode":"75008"}
{"title":"Ima","address":"20 bd de la Tour-d'Auvergne","postCode":"35000"}
{"title":"Le Chiberta","address":"3 Rue Arsène Houssaye","postCode":"75008"}
{"title":"Pierre Reboul","address":"260 r. Guillaume-du-Vair","postCode":"13546"}
{"title":"Le Grand Restaurant - Jean-François Piège","address":"7 r. d'Aguesseau","postCode":"75008"}
{"title":"Pertinence","address":"29 r. de l'Exposition","postCode":"75007"}
{"title":"Jean Chauvel","address":"33 av. Général-Leclerc","postCode":"92100"}
{"title":"La Table de la Ferme","address":"Vallée de l'Ortolo","postCode":"20100"}
{"title":"Gordon Ramsay au Trianon","address":"1 bd de la Reine","postCode":"78000"}
{"title":"Auberge de la Mine","address":"le Gué-Plat","postCode":"61450"}
{"title":"Quinsou","address":"33 r. de l'Abbé-Grégoire","postCode":"75006"}
{"title":"Le Pousse-Pied","address":"84 bd des Vendéens","postCode":"85360"}
{"title":"Le Pavillon","address":"av. du Verger","postCode":"62520"}
{"title":"Le Haut-Allier","address":"LE PONT D ALLEYRAS","postCode":"43580"}
{"title":"Jean Sulpice","address":"303 rte du Port","postCode":"74290"}
{"title":"Maison Clovis","address":"19 bd Brotteaux","postCode":"69006"}
{"title":"Au Trou Gascon","address":"40 r. Taine","postCode":"75012"}
{"title":"Le Cap","address":"71 Boulevard du Général-de-Gaulle","postCode":"06230"}
{"title":"La Table","address":"32 Rue de la Barre","postCode":"59000"}
{"title":"Restaurant H","address":"13 r. Jean-Beausire","postCode":"75004"}
{"title":"Le Strasbourg","address":"24 r. du Col. -Teyssier","postCode":"57230"}
{"title":"La Table d'Hôtes - Le Quatrième Mur","address":"2 pl. de la Comédie","postCode":"33000"}
{"title":"Auberge à la Bonne Idée","address":"3 rue des Meuniers","postCode":"60350"}
{"title":"La Marine","address":"11 r. de Paris","postCode":"50270"}
{"title":"La Marelle","address":"1593 av. de Lyon","postCode":"01960"}
{"title":"Les Terrasses de Lyon","address":"25, montée Saint BArthelémy","postCode":"69005"}
{"title":"Maison Decoret","address":"15 rue du Parc","postCode":"03200"}
{"title":"L'Olivier","address":"25 Route des Carles","postCode":"83990"}
{"title":"L'Arcane","address":"39 Rue Lamarck","postCode":"75018"}
{"title":"Azimut","address":"273 r. de la Madelon","postCode":"73120"}
{"title":"La Licorne Royale","address":"27 Place Isaac Benserade","postCode":"27480"}
{"title":"1920","address":"373 chemin des follières","postCode":"74120"}
{"title":"Hostellerie Jérôme","address":"20 r. Comte de Cessole","postCode":"06320"}
{"title":"L'Émulsion","address":"57 rte de Lyon","postCode":"38080"}
{"title":"Jérôme Feck","address":"19 pl. Mgr-Tissier","postCode":"51000"}
{"title":"Sylvestre","address":"79 rue St-Dominique","postCode":"75007"}
{"title":"Patrick Jeffroy","address":"20 rue du Kelenn","postCode":"29660"}
{"title":"Fanny Rey & Jonathan Wahid","address":"12, boulevard Mirabeau","postCode":"13210"}
{"title":"Garance","address":"34 r. St-Dominique","postCode":"75007"}
{"title":"Le Chateaubriand","address":"129 av. Parmentier","postCode":"75011"}
{"title":"JAN","address":"12 Rue Lascaris","postCode":"06000"}
{"title":"Le Pressoir","address":"7 r. de l'Hôpital","postCode":"56890"}
{"title":"Les Fresques","address":"13 Avenue des Mateirons","postCode":"74500"}
{"title":"La Côte Saint-Jacques","address":"14 faubourg de Paris","postCode":"89300"}
{"title":"L'Atelier d'Edmond","address":"au Fornet","postCode":"73150"}
{"title":"Le Corot","address":"55 Rue de Versailles","postCode":"92410"}
{"title":"L'Ekrin by Laurent Azoulay","address":"Route de la Montée","postCode":"73550"}
{"title":"Faventia","address":"3100 route de Bagnols-en-Forêt","postCode":"83440"}
{"title":"Maximin Hellio","address":"64 Rue Gambetta","postCode":"14800"}
{"title":"L'Auberge de Bagatelle","address":"489 av. Bollée","postCode":"72000"}
{"title":"Divellec","address":"18 r. Fabert","postCode":"75007"}
{"title":"Assa","address":"189 Quai Ulysse Besnard","postCode":"41000"}
{"title":"Le Chantecler","address":"37 Promenade des Anglais","postCode":"06000"}
{"title":"Le Grand Cap","address":"chemin du Phare","postCode":"11370"}
{"title":"Comice","address":"31 av. de Versailles","postCode":"75016"}
{"title":"Les Terrasses d'Uriage","address":"pl. Déesse-Hygie","postCode":"38410"}
{"title":"Meurin","address":"Rue de Lillers","postCode":"62350"}
{"title":"Sur Mesure par Thierry Marx","address":"251 r. St-Honoré","postCode":"75001"}
{"title":"Le Musigny","address":"90 Avenue de Liege","postCode":"59300"}
{"title":"Le Clos St-Pierre","address":"pl. de la Mairie","postCode":"06650"}
{"title":"Rodolphe","address":"35 r. Percière","postCode":"76000"}
{"title":"Montée","address":"9 r. Léopold-Robert","postCode":"75014"}
{"title":"La Table by La Villa","address":"chemin de Notre-Dame-de-la-Serra","postCode":"20260"}
{"title":"Palégrié","address":"Les Ritons","postCode":"38250"}
{"title":"Garopapilles","address":"62 r. Abbé-de-L'Epée","postCode":"33000"}
{"title":"Pèir","address":"r. de la Combe","postCode":"84220"}
{"title":"U Santa Marina","address":"Marina di Santa Giulia","postCode":"20137"}
{"title":"Le Marcq","address":"944 av. de la République","postCode":"59700"}
{"title":"Racine","address":"6 pl. Godinot","postCode":"51100"}
{"title":"Auberge du Paradis","address":"Le Plâtre-Durand","postCode":"71570"}
{"title":"Château de Vauchoux","address":"","postCode":"70170"}
{"title":"Le Pressoir d'Argent - Gordon Ramsay","address":"2,5 Place de la Comédie","postCode":"33000"}
{"title":"La Table de la Bergerie","address":"La Bergerie","postCode":"49380"}
{"title":"Hostellerie la Montagne","address":"10 rue Pisseloup","postCode":"52330"}
{"title":"Carré des Feuillants","address":"14 rue de Castiglione","postCode":"75001"}
{"title":"Au Vieux Couvent","address":"6 r. des Chanoines","postCode":"67860"}
{"title":"Auberge de la Tour","address":"Place de la Fontaine","postCode":"15220"}
{"title":"La Voile","address":"chemin de la Quessine","postCode":"83350"}
{"title":"Radio","address":"43 av. P. et M.-Curie","postCode":"63400"}
{"title":"Numéro 3","address":"3 rue du Général de Gaulle","postCode":"78490"}
{"title":"Relais Louis XIII","address":"8 Rue des Grands Augustins","postCode":"75006"}
{"title":"La Fourchette des Ducs","address":"6 r. de la Gare","postCode":"67210"}
{"title":"Mère Brazier","address":"12 rue Royale","postCode":"69001"}
{"title":"Xavier Mathieu","address":"Route de Murs","postCode":"84220"}
{"title":"La Vague d'Or","address":"Plage de Bouillabaisse","postCode":"83990"}
{"title":"L'Amaryllis","address":"chemin de Martorey","postCode":"71100"}
{"title":"William Frachot","address":"5 rue Michelet","postCode":"21000"}
{"title":"Le Georges","address":"22 pl. des Épars","postCode":"28000"}
{"title":"Le Brittany","address":"bd Ste-Barbe","postCode":"29681"}
{"title":"L'Arnsbourg","address":"Untermuhlthal","postCode":"57230"}
{"title":"Rackham","address":"27 pl. Lacaze Duthiers rčs de l'église","postCode":"29680"}
{"title":"Auberge du Bon Laboureur","address":"6 r. Dr Bretonneau","postCode":"37150"}
{"title":"Le Grand Cerf","address":"50 rte Nationale","postCode":"51500"}
{"title":"La Liégeoise","address":"digue de mer","postCode":"62930"}
{"title":"La Tour des Vents","address":"Le Moulin de Malfourat","postCode":"24240"}
{"title":"Le Bec au Cauchois","address":"22 Rue André Fiquet","postCode":"76540"}
{"title":"Greuze","address":"1 r. A. Thibaudet","postCode":"71700"}
{"title":"Hostellerie Bérard","address":"Avenue Gabriel-Péri","postCode":"83740"}
{"title":"L'Oasis","address":"rue Jean-Honoré Carle","postCode":"06210"}
{"title":"Le Clos des Sens","address":"13 r. J. -Mermoz","postCode":"74940"}
{"title":"Hostellerie de l'Abbaye de la Celle","address":"10 Place Général de Gaulle","postCode":"83170"}
{"title":"Le Raisin","address":"2 pl. M. -Poisat","postCode":"01190"}
{"title":"Le Patio","address":"10 bd de la Plage","postCode":"33120"}
{"title":"Le Meurice Alain Ducasse","address":"228 Rue de Rivoli","postCode":"75001"}
{"title":"Entre Vigne et Garrigue","address":"600 route de Saint Bruno","postCode":"30131"}
{"title":"Le Mas du Langoustier","address":"","postCode":"83400"}
{"title":"Serge Vieira","address":"Château du Couffour","postCode":"15110"}
{"title":"La Passagère","address":"33 boulevard E. -Baudoin","postCode":"06160"}
{"title":"Mathieu Pacaud - Histoires","address":"85 Avenue Kléber","postCode":"75016"}
{"title":"Loiseau rive Gauche","address":"5 rue Bourgogne","postCode":"75007"}
{"title":"Villa Archange","address":"Rue de l'Ouest","postCode":"06110"}
{"title":"Auberge La Pomme d'Api","address":"49 r. Verderel","postCode":"29250"}
{"title":"L'Essentiel","address":"8 r. de la Clarté","postCode":"24000"}
