{"title":"Le Jardin des Remparts","address":"10 rue Hôtel-Dieu10 rue Hôtel-Dieu","postCode":"2120021200"}
{"title":"Frédéric Doucet","address":"2 avenue de la Libération2 avenue de la Libération","postCode":"7112071120"}
{"title":"Le Pré Catelan","address":"Route de SuresnesRoute de Suresnes","postCode":"7501675016"}
{"title":"Aigue Marine","address":"5 r. M. -Berthelot5 r. M. -Berthelot","postCode":"2222022220"}
{"title":"Le 39V","address":"39 Avenue George V39 Avenue George V","postCode":"7500875008"}
{"title":"Le Saint-Estève","address":"2250 route cézanne D172250 route cézanne D17","postCode":"1310013100"}
{"title":"JY'S","address":"17 r. de la Poissonnerie17 r. de la Poissonnerie","postCode":"6800068000"}
{"title":"Restaurant du Palais Royal","address":"110 Galerie de Valois - Jardin du Palais Royal110 Galerie de Valois - Jardin du Palais Royal","postCode":"7500175001"}
{"title":"Auberge de l'Île Barbe","address":"1 Place Notre-Dame1 Place Notre-Dame","postCode":"6900969009"}
{"title":"Les Pêcheurs","address":"10 boulevard du Maréchal-Juin10 boulevard du Maréchal-Juin","postCode":"0660006600"}
{"title":"La Table de Franck Putelat","address":"80 chemin des Anglais80 chemin des Anglais","postCode":"1100011000"}
{"title":"Le Restaurant","address":"13 rue des Beaux-Arts13 rue des Beaux-Arts","postCode":"7500675006"}
{"title":"Christophe Bacquié","address":"Hotel du Castellet Route des Hauts du CampHotel du Castellet Route des Hauts du Camp","postCode":"8333083330"}
{"title":"L'Orangerie du Château","address":"1 Avenue du Docteur Jean Laigret1 Avenue du Docteur Jean Laigret","postCode":"4100041000"}
{"title":"Fanny Rey & Jonathan Wahid","address":"12, boulevard Mirabeau12, boulevard Mirabeau","postCode":"1321013210"}
{"title":"Paul Bocuse","address":"40 Quai de la Plage40 Quai de la Plage","postCode":"6966069660"}
{"title":"Les Tablettes de Jean-Louis Nomicos","address":"16 Avenue Bugeaud16 Avenue Bugeaud","postCode":"7501675016"}
{"title":"La Liégeoise","address":"digue de merdigue de mer","postCode":"6293062930"}
{"title":"Numéro 3","address":"3 rue du Général de Gaulle3 rue du Général de Gaulle","postCode":"7849078490"}
{"title":"Paloma","address":"47 Avenue du Moulin de la Croix47 Avenue du Moulin de la Croix","postCode":"0625006250"}
{"title":"L'Almandin","address":"Boulevard de l'AlmandinBoulevard de l'Almandin","postCode":"6675066750"}
{"title":"La Tour des Vents","address":"Le Moulin de MalfouratLe Moulin de Malfourat","postCode":"2424024240"}
{"title":"Patrick Jeffroy","address":"20 rue du Kelenn20 rue du Kelenn","postCode":"2966029660"}
{"title":"Mère Brazier","address":"12 rue Royale12 rue Royale","postCode":"6900169001"}
{"title":"Le Violon d'Ingres","address":"135 Rue Saint-Dominique135 Rue Saint-Dominique","postCode":"7500775007"}
{"title":"Le Moulin du Roc","address":"Avenue Eugène Le RoyAvenue Eugène Le Roy","postCode":"2453024530"}
{"title":"Mathieu Pacaud - Histoires","address":"85 Avenue Kléber85 Avenue Kléber","postCode":"7501675016"}
{"title":"Têtedoie","address":"4 Rue Professeur Pierre Marion4 Rue Professeur Pierre Marion","postCode":"6900569005"}
{"title":"Le Cloître","address":"Le CloitreLe Cloitre","postCode":"0430004300"}
{"title":"Sur Mesure par Thierry Marx","address":"251 Rue Saint Honoré251 Rue Saint Honoré","postCode":"7500175001"}
{"title":"Le Quinzième - Cyril Lignac","address":"14 rue Cauchy14 rue Cauchy","postCode":"7501575015"}
{"title":"Le Relais Bernard Loiseau","address":"2, rue d'Argentine2, rue d'Argentine","postCode":"2121021210"}
{"title":"Hostellerie de l'Abbaye de la Celle","address":"10 Place Général de Gaulle10 Place Général de Gaulle","postCode":"8317083170"}
{"title":"1217","address":"le bourgle bourg","postCode":"6962069620"}
{"title":"Le Taillevent","address":"15 Rue Lamennais15 Rue Lamennais","postCode":"7500875008"}
{"title":"Assiette Champenoise","address":"40 av. Paul Vaillant-Couturier40 av. Paul Vaillant-Couturier","postCode":"5143051430"}
{"title":"Hostellerie Bérard","address":"Avenue Gabriel-PériAvenue Gabriel-Péri","postCode":"8374083740"}
{"title":"Le Chiberta","address":"3 Rue Arsène Houssaye3 Rue Arsène Houssaye","postCode":"7500875008"}
{"title":"Le Petit Nice","address":"Anse de Maldormé - Corniche J. F. KennedyAnse de Maldormé - Corniche J. F. Kennedy","postCode":"1300713007"}
{"title":"La Barbacane","address":"Place Auguste-Pierre-PontPlace Auguste-Pierre-Pont","postCode":"1100011000"}
{"title":"Le Fanal","address":"17 Avenue du Fontaulé17 Avenue du Fontaulé","postCode":"6665066650"}
{"title":"Au Trou Gascon","address":"40 rue Taine40 rue Taine","postCode":"7501275012"}
{"title":"Carré des Feuillants","address":"14 rue de Castiglione14 rue de Castiglione","postCode":"7500175001"}
{"title":"Le Hittau","address":"1 rue du Nouaou1 rue du Nouaou","postCode":"4023040230"}
{"title":"Dominique Bouchet","address":"11 Rue Treilhard11 Rue Treilhard","postCode":"7500875008"}
{"title":"Mirazur","address":"30, Avenue Aristide Briand30, Avenue Aristide Briand","postCode":"0650006500"}
{"title":"G.a. au Manoir de Rétival","address":"2 rue St. Clair2 rue St. Clair","postCode":"7649076490"}
{"title":"Gill","address":"9 quai de la Bourse9 quai de la Bourse","postCode":"7600076000"}
{"title":"Le Magasin aux Vivres","address":"5 Avenue Ney5 Avenue Ney","postCode":"5700057000"}
{"title":"La Dame de Pic","address":"20 Rue du Louvre20 Rue du Louvre","postCode":"7500175001"}
{"title":"L'Aparté","address":"21 Rue de l’Europe21 Rue de l’Europe","postCode":"3185031850"}
{"title":"Le Pressoir","address":"7 r. de l'Hôpital7 r. de l'Hôpital","postCode":"5689056890"}
{"title":"Château de Pray","address":"Rue du CèdreRue du Cèdre","postCode":"3740037400"}
{"title":"Il Carpaccio","address":"37 avenue Hoche37 avenue Hoche","postCode":"7500875008"}
{"title":"Aux Pesked","address":"59 Rue du Légué59 Rue du Légué","postCode":"2200022000"}
{"title":"En Marge","address":"1204 route de la Croix-Falgarde1204 route de la Croix-Falgarde","postCode":"3132031320"}
{"title":"Auberge du Vieux Puits","address":"5 Avenue Saint-Victor5 Avenue Saint-Victor","postCode":"1136011360"}
{"title":"Domaine d'Auriac","address":"Route de Saint-HilaireRoute de Saint-Hilaire","postCode":"1100011000"}
{"title":"L'Oustau de Baumanière","address":"Village des Baux-de-ProvenceVillage des Baux-de-Provence","postCode":"1352013520"}
{"title":"Les Fresques","address":"D18D18","postCode":"2424024240"}
{"title":"Bruno","address":"2350 route des Arcs, Campagne Mariette2350 route des Arcs, Campagne Mariette","postCode":"8351083510"}
{"title":"Le Brittany","address":"bd Ste-Barbebd Ste-Barbe","postCode":"2968129681"}
{"title":"La Maison de Bournissac","address":"montée d'Eyraguesmontée d'Eyragues","postCode":"1355013550"}
{"title":"Le Quincangrogne","address":"7 Rue de l'Abreuvoir7 Rue de l'Abreuvoir","postCode":"7740077400"}
{"title":"Auberge du Bon Laboureur","address":"6 r. Dr Bretonneau6 r. Dr Bretonneau","postCode":"3715037150"}
{"title":"J.-M. Pérochon","address":"63 avenue de la Grand'Roche63 avenue de la Grand'Roche","postCode":"8547085470"}
{"title":"Les Bacchanales","address":"247 avenue de Provence247 avenue de Provence","postCode":"0614006140"}
{"title":"Les Bas-Rupts","address":"181 rte de la Bresse181 rte de la Bresse","postCode":"8840088400"}
{"title":"Stéphane Derbord","address":"10 Place du Président Wilson10 Place du Président Wilson","postCode":"2100021000"}
{"title":"Auberge des Templiers","address":"D2007D2007","postCode":"4529045290"}
{"title":"Relais de la Poste","address":"21 rue du Gén. -de-Gaulle21 rue du Gén. -de-Gaulle","postCode":"6761067610"}
{"title":"La Coopérative","address":"2A Route de Caladroy2A Route de Caladroy","postCode":"6672066720"}
{"title":"Ô Flaveurs","address":"Château de ChillyChâteau de Chilly","postCode":"7414074140"}
{"title":"La Table de Patrick Raingeard","address":"1312 av. Raymond-Poincaré1312 av. Raymond-Poincaré","postCode":"0636006360"}
{"title":"Le Clarence","address":"31 Avenue Franklin Delano Roosevelt31 Avenue Franklin Delano Roosevelt","postCode":"7500875008"}
{"title":"Raphaël Vionnet","address":"43 Avenue du Général Leclerc43 Avenue du Général Leclerc","postCode":"7420074200"}
{"title":"Ivan Vautier","address":"3 avenue Henry-Chéron3 avenue Henry-Chéron","postCode":"1400014000"}
{"title":"Yoann Conte","address":"13 Vieille-Route-des-Pensières13 Vieille-Route-des-Pensières","postCode":"7429074290"}
{"title":"Le Coquillage","address":"Lieu-dit Le BuotLieu-dit Le Buot","postCode":"3535035350"}
{"title":"L'Atelier d'Edmond","address":"au Fornetau Fornet","postCode":"7315073150"}
{"title":"Loiseau rive Gauche","address":"5 rue de Bourgogne5 rue de Bourgogne","postCode":"7500775007"}
{"title":"L'Essentiel","address":"29 Rue Mirabeau29 Rue Mirabeau","postCode":"1480014800"}
{"title":"Maison Clovis","address":"19 bd Brotteaux19 bd Brotteaux","postCode":"6900669006"}
{"title":"La Rotonde","address":"200 avenue du Casino200 avenue du Casino","postCode":"6989069890"}
{"title":"La Marelle","address":"1593 av. de Lyon1593 av. de Lyon","postCode":"0196001960"}
{"title":"Le Bénaton","address":"25 Rue du Faubourg-Bretonnière25 Rue du Faubourg-Bretonnière","postCode":"2120021200"}
{"title":"Ithurria","address":"pl. du Frontonpl. du Fronton","postCode":"6425064250"}
{"title":"Relais de la Poste","address":"24 avenue de Maremne24 avenue de Maremne","postCode":"4014040140"}
{"title":"Le Moulin de l'Abbaye","address":"1 avenue Pierre de Bourdeilles1 avenue Pierre de Bourdeilles","postCode":"2431024310"}
{"title":"Chez Michèle","address":"57 rue Principale57 rue Principale","postCode":"5781057810"}
{"title":"Le Kléber","address":"6 r. A. -Dumont6 r. A. -Dumont","postCode":"2640026400"}
{"title":"Auguste","address":"54 r. Bourgogne54 r. Bourgogne","postCode":"7500775007"}
{"title":"Dyades au Domaine des Étangs","address":"Les EtangsLes Etangs","postCode":"1631016310"}
{"title":"Le Cerisier","address":"3 rue de la Gare3 rue de la Gare","postCode":"6284062840"}
{"title":"L'Auberge Basque","address":"quartier Helbarronquartier Helbarron","postCode":"6431064310"}
{"title":"La Bonne Étape","address":"chemin du lacchemin du lac","postCode":"0416004160"}
{"title":"La Bastide de Moustiers","address":"Parc naturel régional du Verdon, Chemin de QuinsonParc naturel régional du Verdon, Chemin de Quinson","postCode":"0436004360"}
{"title":"Restaurant du Château","address":"15 avenue des Reynats15 avenue des Reynats","postCode":"2465024650"}
{"title":"Château de Courban","address":"7 rue du Lavoir7 rue du Lavoir","postCode":"2152021520"}
{"title":"Pierre Gagnaire","address":"6 Rue Balzac6 Rue Balzac","postCode":"7500875008"}
{"title":"William Frachot","address":"5 rue Michelet5 rue Michelet","postCode":"2100021000"}
{"title":"Le Pergolèse","address":"40 Rue Pergolèse40 Rue Pergolèse","postCode":"7511675116"}
{"title":"Le Pavillon des Boulevards","address":"120 r. Croix-de-Seguey120 r. Croix-de-Seguey","postCode":"3300033000"}
{"title":"Alain Llorca","address":"350 Route de Saint-Paul350 Route de Saint-Paul","postCode":"0648006480"}
{"title":"Loiseau des Vignes","address":"31 Rue Jean Francois Maufoux31 Rue Jean Francois Maufoux","postCode":"2120021200"}
{"title":"La Chaumière","address":"346 av. du Mar. -Juin346 av. du Mar. -Juin","postCode":"3910039100"}
{"title":"Hostellerie du Rosenmeer","address":"45 avenue de la Gare45 avenue de la Gare","postCode":"6756067560"}
{"title":"Initial","address":"24 Rue Saint-Manvieu24 Rue Saint-Manvieu","postCode":"1400014000"}
{"title":"Pierre Orsi","address":"Place KléberPlace Kléber","postCode":"6900669006"}
{"title":"L'Auberge de la Pomme","address":"44 rue de l' eure44 rue de l' eure","postCode":"2734027340"}
{"title":"La Licorne Royale","address":"27 Place Isaac Benserade27 Place Isaac Benserade","postCode":"2748027480"}
{"title":"Alléno Paris au Pavillon Ledoyen","address":"8 avenue Dutuit8 avenue Dutuit","postCode":"7500875008"}
{"title":"Julien Binz","address":"7 Rue des Cigognes7 Rue des Cigognes","postCode":"6877068770"}
{"title":"Domaine de Clairefontaine","address":"chemin des Fontanetteschemin des Fontanettes","postCode":"3812138121"}
{"title":"Faventia","address":"3100 route de Bagnols-en-Forêt3100 route de Bagnols-en-Forêt","postCode":"8344083440"}
{"title":"L'Ekrin by Laurent Azoulay","address":"Route de la MontéeRoute de la Montée","postCode":"7355073550"}
{"title":"Le M","address":"22 r. du Cdt-Drogou22 r. du Cdt-Drogou","postCode":"2920029200"}
{"title":"Les Morainières","address":"route de Marételroute de Marétel","postCode":"7317073170"}
{"title":"Le Baudelaire","address":"8 rue Duphot8 rue Duphot","postCode":"7500175001"}
{"title":"Le Moulin de la Gorce","address":"D17D17","postCode":"8780087800"}
{"title":"Le Prince Noir - Vivien Durand","address":"1 rue du Prince Noir1 rue du Prince Noir","postCode":"3331033310"}
{"title":"Le Clos des Sens","address":"13 r. J. -Mermoz13 r. J. -Mermoz","postCode":"7494074940"}
{"title":"Le Chantecler","address":"37 Promenade des Anglais37 Promenade des Anglais","postCode":"0600006000"}
{"title":"Le Carmin","address":"4B Place Carnot4B Place Carnot","postCode":"2120021200"}
{"title":"Benoit","address":"20 Rue St-Martin20 Rue St-Martin","postCode":"7500475004"}
{"title":"Hostellerie la Montagne","address":"10 rue Pisseloup10 rue Pisseloup","postCode":"5233052330"}
{"title":"Entre Vigne et Garrigue","address":"600 route de Saint Bruno600 route de Saint Bruno","postCode":"3013130131"}
{"title":"Au Vieux Couvent","address":"6 r. des Chanoines6 r. des Chanoines","postCode":"6786067860"}
{"title":"Le Bouche à Oreille","address":"11 r. de la Chapelle11 r. de la Chapelle","postCode":"9115091150"}
{"title":"Le Refuge des Gourmets","address":"90 route des Framboises90 route des Framboises","postCode":"7414074140"}
{"title":"L'O des Vignes","address":"r. du Bourgr. du Bourg","postCode":"7196071960"}
{"title":"Maximin Hellio","address":"64 Rue Gambetta64 Rue Gambetta","postCode":"1480014800"}
{"title":"Greuze","address":"1 r. A. Thibaudet1 r. A. Thibaudet","postCode":"7170071700"}
{"title":"L'Oasis","address":"6 rue Jean-Honoré Carle6 rue Jean-Honoré Carle","postCode":"0621006210"}
{"title":"JAN","address":"12 Rue Lascaris12 Rue Lascaris","postCode":"0600006000"}
{"title":"Une Table au Sud","address":"2 quai du Port2 quai du Port","postCode":"1300213002"}
{"title":"Hostellerie Les Gorges de Pennafort","address":"8660 RD 258660 RD 25","postCode":"8383083830"}
{"title":"Auberge La Pomme d'Api","address":"49 r. Verderel49 r. Verderel","postCode":"2925029250"}
{"title":"La Madeleine","address":"1 Rue Alsace-Lorraine1 Rue Alsace-Lorraine","postCode":"8910089100"}
{"title":"Le Corot","address":"55 Rue de Versailles55 Rue de Versailles","postCode":"9241092410"}
{"title":"Le Relais des Moines","address":"route de Ste-Roselineroute de Ste-Roseline","postCode":"8346083460"}
{"title":"Cyril Attrazic","address":"10 rte du Languedoc10 rte du Languedoc","postCode":"4813048130"}
{"title":"Pont de l'Ouysse","address":"D23D23","postCode":"4620046200"}
{"title":"Les Hautes Roches","address":"86 quai de Loire86 quai de Loire","postCode":"3721037210"}
{"title":"Auberge Tiegezh","address":"7 Place de la Gare7 Place de la Gare","postCode":"5638056380"}
{"title":"Le Grand Cerf","address":"50 rte Nationale50 rte Nationale","postCode":"5150051500"}
{"title":"La Grande Cascade","address":"Bois de Boulogne, Carrefour de LongchampBois de Boulogne, Carrefour de Longchamp","postCode":"7501675016"}
{"title":"Le Jardin de Benjamin","address":"Route de SalernesRoute de Salernes","postCode":"8351083510"}
{"title":"Villa Archange","address":"Rue de l'OuestRue de l'Ouest","postCode":"0611006110"}
{"title":"Le Carrousel","address":"14 rue du Pont de Morge14 rue du Pont de Morge","postCode":"6335063350"}
{"title":"MaSa","address":"112 avenue Victor-Hugo112 avenue Victor-Hugo","postCode":"9210092100"}
{"title":"La Gouesnière","address":"1 Le Limonay1 Le Limonay","postCode":"3535035350"}
{"title":"Anne de Bretagne","address":"163, Boulevard de la Tara163, Boulevard de la Tara","postCode":"4477044770"}
{"title":"Le Pré du Moulin","address":"rte de Ste-Cécile-les-Vignesrte de Ste-Cécile-les-Vignes","postCode":"8483084830"}
{"title":"La Scène","address":"33 Avenue George V33 Avenue George V","postCode":"7500875008"}
{"title":"Villa René Lalique","address":"18 Rue Bellevue18 Rue Bellevue","postCode":"6729067290"}
{"title":"Domaine de Rochevilaine","address":"à la Pointe de Pen Lanà la Pointe de Pen Lan","postCode":"5619056190"}
{"title":"La Villa Madie","address":"av. du Revestelav. du Revestel","postCode":"1326013260"}
{"title":"Château de Sully","address":"D6D6","postCode":"1440014400"}
{"title":"1912","address":"bd de la Cahottebd de la Cahotte","postCode":"1436014360"}
{"title":"La Grand'Vigne","address":"chemin de Smith-Haut-Lafittechemin de Smith-Haut-Lafitte","postCode":"3365033650"}
{"title":"Maison Kieny","address":"7 Rue du Général de Gaulle7 Rue du Général de Gaulle","postCode":"6840068400"}
{"title":"Domaine des Séquoias","address":"54 Vie-de-Boussieu54 Vie-de-Boussieu","postCode":"3830038300"}
{"title":"Auberge de l'Ill","address":"2 rue de Collonges-au-Mont d'Or2 rue de Collonges-au-Mont d'Or","postCode":"6897068970"}
{"title":"Le Meurice Alain Ducasse","address":"228 Rue de Rivoli228 Rue de Rivoli","postCode":"7500175001"}
{"title":"L'Auberge des Glazicks","address":"7 rue de la Plage7 rue de la Plage","postCode":"2955029550"}
{"title":"Helen","address":"3 r.Berryer3 r.Berryer","postCode":"7500875008"}
{"title":"L'Ambroisie","address":"9 Place des Vosges9 Place des Vosges","postCode":"7500475004"}
{"title":"Girardin","address":"19 Rue des Têtes19 Rue des Têtes","postCode":"6800068000"}
{"title":"La Table des Merville","address":"3 place Richard3 place Richard","postCode":"3132031320"}
{"title":"Le Vivarais","address":"5 avenue Expilly5 avenue Expilly","postCode":"0760007600"}
{"title":"Michel Chabran - La Grande Table","address":"29 Avenue du Quarante-Cinquième Parallèle29 Avenue du Quarante-Cinquième Parallèle","postCode":"2660026600"}
{"title":"Pic","address":"285 avenue Victor Hugo285 avenue Victor Hugo","postCode":"2600026000"}
{"title":"L'Odas","address":"Passage Maurice LenfantPassage Maurice Lenfant","postCode":"7600076000"}
{"title":"Auberge du Cheval Blanc","address":"4 Route de Wissembourg4 Route de Wissembourg","postCode":"6751067510"}
{"title":"Jérôme Brochot","address":"Place BeaubernardPlace Beaubernard","postCode":"7130071300"}
{"title":"La Passagère","address":"33 boulevard E. -Baudoin33 boulevard E. -Baudoin","postCode":"0616006160"}
{"title":"Le St-Placide","address":"6 place du poncel6 place du poncel","postCode":"3540035400"}
{"title":"Le Parc Les Crayères","address":"64 Boulevard Henry Vasnier64 Boulevard Henry Vasnier","postCode":"5110051100"}
{"title":"La Côte Saint-Jacques","address":"14 faubourg de Paris14 faubourg de Paris","postCode":"8930089300"}
{"title":"Radio","address":"43 av. P. et M.-Curie43 av. P. et M.-Curie","postCode":"6340063400"}
{"title":"Domaine des Hauts de Loire","address":"79 rue Gilbert Navard79 rue Gilbert Navard","postCode":"4115041150"}
{"title":"Le Gabriel","address":"42 Avenue Gabriel42 Avenue Gabriel","postCode":"7500875008"}
{"title":"L'Arnsbourg","address":"UntermuhlthalUntermuhlthal","postCode":"5723057230"}
{"title":"Le Georges","address":"22 pl. des Épars22 pl. des Épars","postCode":"2800028000"}
{"title":"Maison Decoret","address":"15 rue du Parc15 rue du Parc","postCode":"0320003200"}
{"title":"Le Castellaras","address":"461 chemin Peymeyan461 chemin Peymeyan","postCode":"8344083440"}
{"title":"Guy Savoy","address":"Monnaie de Paris11 Quai de ContiMonnaie de Paris11 Quai de Conti","postCode":"7500675006"}
{"title":"Le Roc Alto","address":"Quartier La VilleQuartier La Ville","postCode":"0535005350"}
{"title":"Lucas Carton","address":"9 pl. de la Madeleine9 pl. de la Madeleine","postCode":"7500875008"}
{"title":"L'Arcane","address":"39 Rue Lamarck39 Rue Lamarck","postCode":"7501875018"}
{"title":"Le Haut-Allier","address":"LE PONT D ALLEYRASLE PONT D ALLEYRAS","postCode":"4358043580"}
{"title":"Georges Blanc","address":"pl. du Marchépl. du Marché","postCode":"0154001540"}
{"title":"Auberge de la Tour","address":"Place de la FontainePlace de la Fontaine","postCode":"1522015220"}
{"title":"Lasserre","address":"17 Avenue F. -D. -Roosevelt17 Avenue F. -D. -Roosevelt","postCode":"7500875008"}
{"title":"L'Amaryllis","address":"chemin de Martoreychemin de Martorey","postCode":"7110071100"}
{"title":"Hostellerie Jérôme","address":"20 r. Comte de Cessole20 r. Comte de Cessole","postCode":"0632006320"}
{"title":"Le Millénaire","address":"4 rue Bertin4 rue Bertin","postCode":"5110051100"}
{"title":"1131","address":"D 33D 33","postCode":"2136021360"}
{"title":"Manoir de la Boulaie","address":"33 rue Chapelle St-Martin33 rue Chapelle St-Martin","postCode":"4411544115"}
{"title":"Shang Palace","address":"10 Avenue d'Iéna10 Avenue d'Iéna","postCode":"7501675016"}
{"title":"Frédéric Simonin","address":"25 rue Bayen25 rue Bayen","postCode":"7501775017"}
{"title":"Le Sénéchal","address":"Sauveterre de RouergueSauveterre de Rouergue","postCode":"1280012800"}
{"title":"L'Amphitryon","address":"127 r. du Col. -Müller127 r. du Col. -Müller","postCode":"5610056100"}
{"title":"Loiseau des Ducs","address":"3 Rue Vauban3 Rue Vauban","postCode":"2100021000"}
{"title":"Maison Rostang","address":"20 rue Rennequin20 rue Rennequin","postCode":"7501775017"}
{"title":"Flaveur","address":"25 Rue Gubernatis25 Rue Gubernatis","postCode":"0600006000"}
{"title":"Le Domaine du Colombier","address":"270 Chemin de Malombre270 Chemin de Malombre","postCode":"2678026780"}
{"title":"Les Terraillers","address":"11 Route Chemin-Neuf11 Route Chemin-Neuf","postCode":"0641006410"}
{"title":"Les Rosiers","address":"32 av. Beau Soleil32 av. Beau Soleil","postCode":"6420064200"}
{"title":"Jean-Luc Tartarin","address":"Square Saint-RochSquare Saint-Roch","postCode":"7660076600"}
{"title":"Les Explorateurs","address":"place du Slalomplace du Slalom","postCode":"7344073440"}
{"title":"Le Jasmin","address":"Lieu-dit LalandeLieu-dit Lalande","postCode":"4714047140"}
{"title":"La Table de l'Espadon","address":"15 Place Vendôme15 Place Vendôme","postCode":"7500175001"}
{"title":"Alexandre","address":"2 rue Xavier Tronc2 rue Xavier Tronc","postCode":"3012830128"}
{"title":"Chapelle Saint-Martin","address":"33, Saint Martin du Fault33, Saint Martin du Fault","postCode":"8751087510"}
{"title":"Origine","address":"26 Rampe Cauchoise26 Rampe Cauchoise","postCode":"7600076000"}
{"title":"La Scène Thélème","address":"18 Rue Troyon18 Rue Troyon","postCode":"7501775017"}
{"title":"La Palme d'Or","address":"73 Boulevard de la Croisette73 Boulevard de la Croisette","postCode":"0640006400"}
{"title":"Régis et Jacques Marcon","address":"LarsiallasLarsiallas","postCode":"4329043290"}
{"title":"Le Bois sans Feuilles","address":"728 Route de Villerest728 Route de Villerest","postCode":"4215542155"}
{"title":"Auberge de la Diligence","address":"4 r. de la Libération4 r. de la Libération","postCode":"4944049440"}
{"title":"Le P'tit Polyte","address":"2 Rue de la Chapelle2 Rue de la Chapelle","postCode":"3886038860"}
{"title":"Pur' - Jean-François Rouquette","address":"5 r. de la Paix5 r. de la Paix","postCode":"7500275002"}
{"title":"Neige d'Été","address":"12 Rue de l'Amiral Roussin12 Rue de l'Amiral Roussin","postCode":"7501575015"}
{"title":"Ô Saveurs","address":"8 place Ormeaux au village8 place Ormeaux au village","postCode":"3118031180"}
{"title":"La Mare aux Oiseaux","address":"223 RUE DU CHEF DE L'ILE Fedrun223 RUE DU CHEF DE L'ILE Fedrun","postCode":"4472044720"}
{"title":"La Table de La Butte","address":"10 rue de la Mer10 rue de la Mer","postCode":"2926029260"}
{"title":"Le Candille","address":"bd C. Rebuffelbd C. Rebuffel","postCode":"0625006250"}
{"title":"64° Le Restaurant","address":"9-13 Rue du Général de Gaulle9-13 Rue du Général de Gaulle","postCode":"6824068240"}
{"title":"Hélène Darroze","address":"4 rue d'Assas4 rue d'Assas","postCode":"7500675006"}
{"title":"L'Abeille","address":"10 Avenue d'Iéna10 Avenue d'Iéna","postCode":"7501675016"}
{"title":"L'Atelier de Gaztelur","address":"Chemin de GastelhurChemin de Gastelhur","postCode":"6420064200"}
{"title":"La Bastide St-Antoine","address":"48 av. Henri-Dunant48 av. Henri-Dunant","postCode":"0613006130"}
{"title":"Ed.Em","address":"4 imp. Chenevottes4 imp. Chenevottes","postCode":"2119021190"}
{"title":"Antoine","address":"10 av. de New-York10 av. de New-York","postCode":"7511675116"}
{"title":"L'Épuisette","address":"158 Vallon-des-Auffes158 Vallon-des-Auffes","postCode":"1300713007"}
{"title":"Flocons de Sel","address":"1775 rte du Leutaz1775 rte du Leutaz","postCode":"7412074120"}
{"title":"Auberge à la Bonne Idée","address":"3 rue des Meuniers3 rue des Meuniers","postCode":"6035060350"}
{"title":"Le Carré d'Alethius","address":"4 r. Paul-Bertois4 r. Paul-Bertois","postCode":"0780007800"}
{"title":"Cobéa","address":"11 r. Raymond Losserand11 r. Raymond Losserand","postCode":"7501475014"}
{"title":"Auberge Frankenbourg","address":"13 r. Gén. de Gaulle13 r. Gén. de Gaulle","postCode":"6773067730"}
{"title":"Alcyone","address":"1 Place Daviel1 Place Daviel","postCode":"1300213002"}
{"title":"Les Terrasses de Lyon","address":"25, montée Saint BArthelémy25, montée Saint BArthelémy","postCode":"6900569005"}
{"title":"La Nouvelle Auberge","address":"9 route Nationale9 route Nationale","postCode":"6823068230"}
{"title":"Château d'Adoménil","address":"","postCode":"5430054300"}
{"title":"Hostellerie de Plaisance","address":"5 place du Clocher5 place du Clocher","postCode":"3333033330"}
{"title":"Le Strasbourg","address":"24 r. du Col. -Teyssier24 r. du Col. -Teyssier","postCode":"5723057230"}
{"title":"L'Escarbille","address":"8 Rue de Vélizy8 Rue de Vélizy","postCode":"9219092190"}
{"title":"Alliance","address":"5 Rue de Poissy5 Rue de Poissy","postCode":"7500575005"}
{"title":"Sylvestre","address":"79 rue St-Dominique79 rue St-Dominique","postCode":"7500775007"}
{"title":"Hervé Busset","address":"D901D901","postCode":"1232012320"}
{"title":"Le Belrose","address":"Boulevard des CrêtesBoulevard des Crêtes","postCode":"8358083580"}
{"title":"Les Prés d'Eugénie - Michel Guérard","address":"pl. de l'Impératricepl. de l'Impératrice","postCode":"4032040320"}
{"title":"Épicure","address":"112 r. Fg St-Honoré112 r. Fg St-Honoré","postCode":"7500875008"}
{"title":"Les Jardins de l'Espadon","address":"15 place Vendôme15 place Vendôme","postCode":"7500175001"}
{"title":"Maison Lameloise","address":"36 pl. d'Armes36 pl. d'Armes","postCode":"7115071150"}
{"title":"Penati al Baretto","address":"9 rue Balzac9 rue Balzac","postCode":"7500875008"}
{"title":"La Bergerie","address":"D999D999","postCode":"6349063490"}
{"title":"Le Gindreau","address":"D5D5","postCode":"4615046150"}
{"title":"Ar Men Du","address":"47 rue des îles47 rue des îles","postCode":"2992029920"}
{"title":"Le Grand Véfour","address":"17 rue de Beaujolais17 rue de Beaujolais","postCode":"7500175001"}
{"title":"Atmosphères","address":"618 Route des Tournelles618 Route des Tournelles","postCode":"7337073370"}
{"title":"La Galinette","address":"23 r. Jean Payra23 r. Jean Payra","postCode":"6600066000"}
{"title":"Thierry Drapeau","address":"La ChabotterieLa Chabotterie","postCode":"8526085260"}
{"title":"Hexagone","address":"85 Avenue Kléber85 Avenue Kléber","postCode":"7501675016"}
{"title":"Auberge de Clochemerle","address":"Rue Gabriel-ChevallierRue Gabriel-Chevallier","postCode":"6946069460"}
{"title":"L'Amphitryon","address":"chemin de Gramontchemin de Gramont","postCode":"3177031770"}
{"title":"Le Jardin des Plumes","address":"1 Rue du Milieu1 Rue du Milieu","postCode":"2762027620"}
{"title":"Assa","address":"189 Quai Ulysse Besnard189 Quai Ulysse Besnard","postCode":"4100041000"}
{"title":"L'Atelier de Jean-Luc Rabanel","address":"7 r. des Carmes7 r. des Carmes","postCode":"1320013200"}
{"title":"L'Impertinent","address":"5, rue d'Alsace5, rue d'Alsace","postCode":"6420064200"}
{"title":"Le Farçon","address":"immeuble la Kalinkaimmeuble la Kalinka","postCode":"7312573125"}
{"title":"Le Figuier de St-Esprit","address":"7, Promenade Amiral de Grasse7, Promenade Amiral de Grasse","postCode":"0660006600"}
{"title":"La Maison d'à Côté","address":"17 rue de Chambord17 rue de Chambord","postCode":"4135041350"}
{"title":"Kasbür","address":"8 Rue de Dettwiller8 Rue de Dettwiller","postCode":"6770067700"}
{"title":"Il Cortile","address":"11 r. des Franciscains11 r. des Franciscains","postCode":"6810068100"}
{"title":"Le Saison","address":"1 imp. du Vieux-Bourg1 imp. du Vieux-Bourg","postCode":"3576035760"}
{"title":"Le Domaine de la Corniche","address":"5 rte de la Corniche5 rte de la Corniche","postCode":"7827078270"}
{"title":"Lamartine","address":"Route du Tunnel du ChatRoute du Tunnel du Chat","postCode":"7337073370"}
{"title":"Jérôme Nutile - Le Mas de Boudan","address":"351 Chemin du Mas de Boudan351 Chemin du Mas de Boudan","postCode":"3000030000"}
{"title":"Le Petit Hôtel du Grand Large","address":"11 quai St-Ivy11 quai St-Ivy","postCode":"5651056510"}
{"title":"La Promenade","address":"11 rue du Savoureulx11 rue du Savoureulx","postCode":"3735037350"}
{"title":"Le Raisin","address":"2 pl. M. -Poisat2 pl. M. -Poisat","postCode":"0119001190"}
{"title":"Le Patio","address":"10 bd de la Plage10 bd de la Plage","postCode":"3312033120"}
{"title":"Le Colombier","address":"r. Loucheurr. Loucheur","postCode":"7655076550"}
{"title":"Nakatani","address":"27 Rue Pierre Leroux27 Rue Pierre Leroux","postCode":"7500775007"}
{"title":"Le Manoir du Lys","address":"D235D235","postCode":"6114061140"}
{"title":"Auberge au Boeuf","address":"Rue de l'EgliseRue de l'Eglise","postCode":"6777067770"}
{"title":"Château de Mercuès","address":"Route du ChâteauRoute du Château","postCode":"4609046090"}
{"title":"Le Cap","address":"71 Boulevard du Général-de-Gaulle71 Boulevard du Général-de-Gaulle","postCode":"0623006230"}
{"title":"Auberge de la Mine","address":"le Gué-Platle Gué-Plat","postCode":"6145061450"}
{"title":"Xavier Mathieu","address":"Route de MursRoute de Murs","postCode":"8422084220"}
{"title":"Aux Anges","address":"6 Place Georges Clemenceau6 Place Georges Clemenceau","postCode":"4230042300"}
{"title":"L'Olivier","address":"25 Route des Carles25 Route des Carles","postCode":"8399083990"}
{"title":"Le Pressoir d'Argent - Gordon Ramsay","address":"2,5 Place de la Comédie2,5 Place de la Comédie","postCode":"3300033000"}
{"title":"Kei","address":"5 rue du Coq-Héron5 rue du Coq-Héron","postCode":"7500175001"}
{"title":"La Fourchette des Ducs","address":"6 r. de la Gare6 r. de la Gare","postCode":"6721067210"}
{"title":"La Grande Maison de Bernard Magrez","address":"10 Rue Labottière10 Rue Labottière","postCode":"3300033000"}
{"title":"La Voile","address":"chemin de la Quessinechemin de la Quessine","postCode":"8335083350"}
{"title":"Les Terrasses d'Uriage","address":"pl. Déesse-Hygiepl. Déesse-Hygie","postCode":"3841038410"}
{"title":"Alain Ducasse au Plaza Athénée","address":"25 avenue Montaigne25 avenue Montaigne","postCode":"7500875008"}
{"title":"Takao Takano","address":"33 Rue Malesherbes33 Rue Malesherbes","postCode":"6900669006"}
{"title":"Le Mascaret","address":"1 r. de Bas1 r. de Bas","postCode":"5056050560"}
{"title":"La Table de la Bergerie","address":"La BergerieLa Bergerie","postCode":"4938049380"}
{"title":"Les Fresques","address":"13 Avenue des Mateirons13 Avenue des Mateirons","postCode":"7450074500"}
{"title":"La Gourmandière - La Table d'Olivier","address":"D126D126","postCode":"5600056000"}
{"title":"Auberge de l'Abbaye","address":"47 place des anciens Combattants47 place des anciens Combattants","postCode":"0150001500"}
{"title":"Les Ducs de Lorraine","address":"5 av. Provence5 av. Provence","postCode":"8800088000"}
{"title":"La Table d'Uzès","address":"18 rue du Docteur Blanchard18 rue du Docteur Blanchard","postCode":"3070030700"}
{"title":"AM par Alexandre Mazzia","address":"9 rue François Rocca9 rue François Rocca","postCode":"1300813008"}
{"title":"Les Cèdres","address":"25 Rue Henri MACHON25 Rue Henri MACHON","postCode":"2660026600"}
{"title":"Les Clefs d'Argent","address":"333 Avenue des Martyrs de la Résistance333 Avenue des Martyrs de la Résistance","postCode":"4000040000"}
{"title":"Grand Hôtel du Lion d'Or","address":"69 r. Clemenceau69 r. Clemenceau","postCode":"4120041200"}
{"title":"Dominique Bucaille","address":"715 av. des Savels715 av. des Savels","postCode":"0410004100"}
{"title":"Le Cinq","address":"31 av. George V31 av. George V","postCode":"7500875008"}
{"title":"René et Maxime Meilleur","address":"Saint MarcelSaint Marcel","postCode":"7344073440"}
{"title":"Auberge St-Laurent","address":"1 rue Fontaine1 rue Fontaine","postCode":"6851068510"}
{"title":"Le Clair de la Plume","address":"2 Place du Mail2 Place du Mail","postCode":"2623026230"}
{"title":"Les Berceaux","address":"13 rue des Berceaux13 rue des Berceaux","postCode":"5120051200"}
{"title":"Apicius","address":"Marché Saint Pierre 1 étageMarché Saint Pierre 1 étage","postCode":"6300063000"}
{"title":"L'Écrin","address":"10 place de la Concorde10 place de la Concorde","postCode":"7500875008"}
{"title":"Logis de la Cadène","address":"Place du Marche au BoisPlace du Marche au Bois","postCode":"3333033330"}
{"title":"Les Voiles d'Or","address":"2 chemin de la Falaise2 chemin de la Falaise","postCode":"7620076200"}
{"title":"Jean-Claude Leclerc","address":"12 rue St-Adjutor12 rue St-Adjutor","postCode":"6300063000"}
{"title":"Gordon Ramsay au Trianon","address":"1 bd de la Reine1 bd de la Reine","postCode":"7800078000"}
{"title":"SEPT","address":"7 pl. St-Sernin7 pl. St-Sernin","postCode":"3100031000"}
{"title":"La Pyramide-Patrick Henriroux","address":"14 Boulevard Fernand Point14 Boulevard Fernand Point","postCode":"3820038200"}
{"title":"Restaurant des Rois","address":"5 Boulevard du Maréchal Leclerc5 Boulevard du Maréchal Leclerc","postCode":"0631006310"}
{"title":"L'Archeste","address":"79 rue de la Tour79 rue de la Tour","postCode":"7511675116"}
{"title":"1741","address":"22 Quai des Bateliers22 Quai des Bateliers","postCode":"6700067000"}
{"title":"Arpège","address":"84 Rue de Varenne84 Rue de Varenne","postCode":"7500775007"}
{"title":"La Grange de Belle-Église","address":"28 bd René-Aimé-Lagabrielle28 bd René-Aimé-Lagabrielle","postCode":"6054060540"}
{"title":"Le Saint-James","address":"3 pl. Camille-Hostein3 pl. Camille-Hostein","postCode":"3327033270"}
{"title":"Les Bories","address":"rte de l'Abbaye de Sénanquerte de l'Abbaye de Sénanque","postCode":"8422084220"}
{"title":"Toya","address":"av. Jean-Monnetav. Jean-Monnet","postCode":"5738057380"}
{"title":"Le Kintessence","address":"Rue des ClarinesRue des Clarines","postCode":"7312073120"}
{"title":"Le Clocher des Pères","address":"D213D213","postCode":"7313073130"}
{"title":"La Renaissance","address":"20 av. 2e-Division-Blindée20 av. 2e-Division-Blindée","postCode":"6120061200"}
{"title":"Pierre","address":"7-9 rue Joseph Dufour7-9 rue Joseph Dufour","postCode":"7100071000"}
{"title":"Relais Louis XIII","address":"8 Rue des Grands Augustins8 Rue des Grands Augustins","postCode":"7500675006"}
{"title":"Rackham","address":"27 pl. Lacaze Duthiers rčs de l'église27 pl. Lacaze Duthiers rčs de l'église","postCode":"2968029680"}
{"title":"La Table Breizh Café","address":"7 quai Thomas7 quai Thomas","postCode":"3526035260"}
{"title":"La Grignotière","address":"6 Rue Jean Jaures6 Rue Jean Jaures","postCode":"5959059590"}
{"title":"1920","address":"373 chemin des follières373 chemin des follières","postCode":"7412074120"}
{"title":"Le Musigny","address":"90 Avenue de Liege90 Avenue de Liege","postCode":"5930059300"}
{"title":"L'Arôme","address":"3 rue St-Philippe-du-Roule3 rue St-Philippe-du-Roule","postCode":"7500875008"}
{"title":"La Cachette","address":"Rue des CévennesRue des Cévennes","postCode":"2600026000"}
{"title":"La Vague d'Or","address":"Plage de BouillabaissePlage de Bouillabaisse","postCode":"8399083990"}
{"title":"Le Bec au Cauchois","address":"22 Rue André Fiquet22 Rue André Fiquet","postCode":"7654076540"}
{"title":"La Matelote","address":"80 Boulevard Ste Beuve80 Boulevard Ste Beuve","postCode":"6220062200"}
{"title":"L'Atelier du Peintre","address":"1 Rue Schongauer1 Rue Schongauer","postCode":"6800068000"}
{"title":"Château Cordeillan-Bages","address":"route des chateauxroute des chateaux","postCode":"3325033250"}
{"title":"Le France","address":"8 place Cupillard8 place Cupillard","postCode":"2513025130"}
{"title":"Stéphane Tournié - Les Jardins de l'Opéra","address":"1 place du Capitole1 place du Capitole","postCode":"3100031000"}
{"title":"La Table","address":"32 Rue de la Barre32 Rue de la Barre","postCode":"5900059000"}
{"title":"Meurin","address":"Rue de LillersRue de Lillers","postCode":"6235062350"}
{"title":"Les Loges","address":"6 r. du Boeuf6 r. du Boeuf","postCode":"6900569005"}
{"title":"Maximilien","address":"19a rte Ostheim19a rte Ostheim","postCode":"6834068340"}
{"title":"114, Faubourg","address":"114 r. Fg St-Honoré114 r. Fg St-Honoré","postCode":"7500875008"}
{"title":"La Table de Nans","address":"corniche du Liouquetcorniche du Liouquet","postCode":"1360013600"}
{"title":"Le Lido","address":"42 av. Napoléon-III42 av. Napoléon-III","postCode":"2011020110"}
{"title":"Auberge du Pont d'Acigné","address":"D392D392","postCode":"3553035530"}
{"title":"La Table du Gourmet","address":"5 rue 1ère Armée5 rue 1ère Armée","postCode":"6834068340"}
{"title":"Le Gourmet de Sèze","address":"125 Rue de Sèze125 Rue de Sèze","postCode":"6900669006"}
{"title":"Skab","address":"7 Rue de la République7 Rue de la République","postCode":"3000030000"}
{"title":"La Table de l'Alpaga","address":"66 Allée des Marmousets66 Allée des Marmousets","postCode":"7412074120"}
{"title":"Auberge de la Charme","address":"12 r. de la Charme12 r. de la Charme","postCode":"2137021370"}
{"title":"Le Saint-Martin","address":"Avenue des TempliersAvenue des Templiers","postCode":"0614006140"}
{"title":"Au Crocodile","address":"10 rue de L'Outre10 rue de L'Outre","postCode":"6700067000"}
{"title":"Jin","address":"6 Rue de la Sourdière6 Rue de la Sourdière","postCode":"7500175001"}
{"title":"L'Orangerie","address":"31 Avenue George-V31 Avenue George-V","postCode":"7500875008"}
{"title":"La Lorraine","address":"80 rue Principale80 rue Principale","postCode":"5733057330"}
{"title":"La Marine","address":"3 r. Marie-Lemonnier3 r. Marie-Lemonnier","postCode":"8533085330"}
{"title":"Le Bistro des Saveurs","address":"35 Rue de Sélestat35 Rue de Sélestat","postCode":"6721067210"}
{"title":"La Chèvre d'Or","address":"r. du Barrir. du Barri","postCode":"0636006360"}
{"title":"La Maison dans le Parc","address":"3 r. Ste-Catherine3 r. Ste-Catherine","postCode":"5400054000"}
{"title":"Copenhague","address":"142 AVENUE DES CHAMPS ELYSEES142 AVENUE DES CHAMPS ELYSEES","postCode":"7500875008"}
{"title":"Le Vieux Logis","address":"Le BourgLe Bourg","postCode":"2451024510"}
{"title":"Le 1947","address":"Cheval Blanc Courchevel - Le Jardin AlpinCheval Blanc Courchevel - Le Jardin Alpin","postCode":"7312073120"}
{"title":"Fontevraud Le Restaurant","address":"38 rue St-Jean-de-l'Habit38 rue St-Jean-de-l'Habit","postCode":"4959049590"}
{"title":"La Table de Manville","address":"Domaine de Manville - D27Domaine de Manville - D27","postCode":"1352013520"}
{"title":"La Palmeraie","address":"81 Boulevard de Gigaro81 Boulevard de Gigaro","postCode":"8342083420"}
{"title":"Le Grand Bleu","address":"43 av. de la Gare43 av. de la Gare","postCode":"2420024200"}
{"title":"Alan Geaam","address":"19 Rue Lauriston19 Rue Lauriston","postCode":"7501675016"}
{"title":"Le Pré - Xavier Beaudiment","address":"3 Route de la Baraque3 Route de la Baraque","postCode":"6383063830"}
{"title":"Auberge des Saints Pères","address":"212 av. de Nonneville212 av. de Nonneville","postCode":"9360093600"}
{"title":"Le Pavé d'Auge","address":"D49D49","postCode":"1443014430"}
{"title":"Auberge du Cellier","address":"1 Rue de Sainte-Eugénie1 Rue de Sainte-Eugénie","postCode":"6672066720"}
{"title":"Louison","address":"2750 route de la cride2750 route de la cride","postCode":"1361013610"}
{"title":"La Ferme de l'Hospital","address":"rte du golfrte du golf","postCode":"7416074160"}
{"title":"La Réserve Rimbaud","address":"820 Avenue de Saint-Maur820 Avenue de Saint-Maur","postCode":"3400034000"}
{"title":"Auberge Grand'Maison","address":"1 r. Léon-le-Cerf1 r. Léon-le-Cerf","postCode":"2253022530"}
{"title":"Elsa","address":"Monte-Carlo Beach - Avenue Princesse GraceMonte-Carlo Beach - Avenue Princesse Grace","postCode":"0619006190"}
{"title":"Les Trois Soleils de Montal","address":"St-Jean-LespinasseSt-Jean-Lespinasse","postCode":"4640046400"}
{"title":"Mavrommatis","address":"42 rue Daubenton42 rue Daubenton","postCode":"7500575005"}
{"title":"Casadelmar","address":"Route de la Plage de PalombaggiaRoute de la Plage de Palombaggia","postCode":"2013720137"}
{"title":"Emporio Armani Ristorante","address":"149 Boulevard Saint-Germain149 Boulevard Saint-Germain","postCode":"7500675006"}
{"title":"I Salti","address":"route du Reginuroute du Reginu","postCode":"2022620226"}
{"title":"La Maison des Bois - Marc Veyrat","address":"Chemin Rural de Manigod au Col de la Croix FryChemin Rural de Manigod au Col de la Croix Fry","postCode":"7423074230"}
{"title":"Flaveurs","address":"32 Grande-Rue32 Grande-Rue","postCode":"2600026000"}
{"title":"Stéphane Carbone","address":"14 r. de Courtonne14 r. de Courtonne","postCode":"1400014000"}
{"title":"Le Beaulieu","address":"34 Bis Place République34 Bis Place République","postCode":"7200072000"}
{"title":"L'Esquisse","address":"21 rue Royale21 rue Royale","postCode":"7400074000"}
{"title":"L'Axel","address":"43 r. de France43 r. de France","postCode":"7730077300"}
{"title":"Aida","address":"1 r. Pierre Leroux1 r. Pierre Leroux","postCode":"7500775007"}
{"title":"Maison Jeunet","address":"9 r. de l'Hôtel-de-Ville9 r. de l'Hôtel-de-Ville","postCode":"3960039600"}
{"title":"Auberge La Fenière","address":"D943D943","postCode":"8416084160"}
{"title":"Christopher Coutanceau","address":"Promenade de la ConcurrencePromenade de la Concurrence","postCode":"1700017000"}
{"title":"Dan B. - La Table de Ventabren","address":"r. F. -Mistralr. F. -Mistral","postCode":"1312213122"}
{"title":"L'Étang du Moulin","address":"5 chemin de l'Etang du Moulin5 chemin de l'Etang du Moulin","postCode":"2521025210"}
{"title":"Les Trois Rochers","address":"16 rue du Phare16 rue du Phare","postCode":"2912029120"}
{"title":"Une Île","address":"9 r. Max-Richard9 r. Max-Richard","postCode":"4900049000"}
{"title":"La Table du Connétable","address":"4 Rue du Connétable4 Rue du Connétable","postCode":"6050060500"}
{"title":"La Chassagnette","address":"route du Sambucroute du Sambuc","postCode":"1320013200"}
{"title":"Qui plume la Lune","address":"50 r. Amelot50 r. Amelot","postCode":"7501175011"}
{"title":"Le Passe Temps","address":"52 Rue Tronchet52 Rue Tronchet","postCode":"6900669006"}
{"title":"Likoké","address":"7 rte de Païolive7 rte de Païolive","postCode":"0714007140"}
{"title":"La Table du 11","address":"8 rue de la chancellerie8 rue de la chancellerie","postCode":"7800078000"}
{"title":"Albert 1er","address":"38 rte du Bouchet38 rte du Bouchet","postCode":"7440074400"}
{"title":"Le Champ des Lunes","address":"route de Roquefraîcheroute de Roquefraîche","postCode":"8436084360"}
{"title":"La Balette","address":"rte de Port-Vendresrte de Port-Vendres","postCode":"6619066190"}
{"title":"Prairial","address":"11 Rue Chavanne11 Rue Chavanne","postCode":"6900169001"}
{"title":"L'Atelier Yssoirien","address":"39 Boulevard Triozon-Bayle39 Boulevard Triozon-Bayle","postCode":"6350063500"}
{"title":"Maison Christian Étienne","address":"10 Rue de Mons10 Rue de Mons","postCode":"8400084000"}
{"title":"Le Vivier","address":"800 cours F. Peyre (rte de Carpentras)800 cours F. Peyre (rte de Carpentras)","postCode":"8480084800"}
{"title":"Auberge de la Brie","address":"14 av. Alphonse Boulingre14 av. Alphonse Boulingre","postCode":"7786077860"}
{"title":"Quai des Saveurs","address":"69 rue de la Gare69 rue de la Gare","postCode":"5730057300"}
{"title":"Buerehiesel","address":"dans le parc de l'Orangeriedans le parc de l'Orangerie","postCode":"6700067000"}
{"title":"Astrance","address":"4 r. Beethoven4 r. Beethoven","postCode":"7501675016"}
{"title":"Serge Vieira","address":"Château du CouffourChâteau du Couffour","postCode":"1511015110"}
{"title":"Le 7ème Continent","address":"35 av. Gén. -de-Gaulle35 av. Gén. -de-Gaulle","postCode":"6817068170"}
{"title":"La Table Saint-Crescent","address":"route de Perpignanroute de Perpignan","postCode":"1110011100"}
{"title":"Le Chabichou","address":"90 Route des Chenus90 Route des Chenus","postCode":"7312073120"}
{"title":"Les Climats","address":"41 rue de Lille41 rue de Lille","postCode":"7500775007"}
{"title":"Passage 53","address":"53 passage des Panoramas53 passage des Panoramas","postCode":"7500275002"}
{"title":"Le Kaïku","address":"17 r. de la République17 r. de la République","postCode":"6450064500"}
{"title":"Château de Mirambeau","address":"1 Avenue des Comtes Duchatel1 Avenue des Comtes Duchatel","postCode":"1715017150"}
{"title":"Au 14 Février","address":"2 r. du Portail2 r. du Portail","postCode":"3610036100"}
{"title":"Table des Frères Ibarboure","address":"chemin Ttalieneachemin Ttalienea","postCode":"6421064210"}
{"title":"Py-r","address":"19 descente de la Halle-aux-Poissons19 descente de la Halle-aux-Poissons","postCode":"3100031000"}
{"title":"La Grenouillère","address":"19 r. de la Grenouillère19 r. de la Grenouillère","postCode":"6217062170"}
{"title":"Les Trois Dômes","address":"20 quai Gailleton20 quai Gailleton","postCode":"6900269002"}
{"title":"Guy Lassausaie","address":"r. de Belle-Siser. de Belle-Sise","postCode":"6938069380"}
{"title":"Le George","address":"31 Avenue George V31 Avenue George V","postCode":"7500875008"}
{"title":"Restaurant de Lauzun","address":"3 bd de l'Esplanade3 bd de l'Esplanade","postCode":"3415034150"}
{"title":"Le Puits St-Jacques","address":"av. Victor-Capoulav. Victor-Capoul","postCode":"3260032600"}
{"title":"La Table d'Olivier","address":"3 r. St-Ambroise3 r. St-Ambroise","postCode":"1910019100"}
{"title":"L'Atelier de Joël Robuchon - Étoile","address":"133 av. des Champs-Élysées133 av. des Champs-Élysées","postCode":"7500875008"}
{"title":"La Bastide de Capelongue","address":"Chemin des CabanesChemin des Cabanes","postCode":"8448084480"}
{"title":"L'Aquarelle","address":"71 A rte du Montil71 A rte du Montil","postCode":"1792017920"}
{"title":"Maison Prévôt","address":"353 av. de Verdun353 av. de Verdun","postCode":"8430084300"}
{"title":"Avel Vor","address":"25 r. de Locmalo25 r. de Locmalo","postCode":"5629056290"}
{"title":"Ze Kitchen Galerie","address":"4 r. des Grands-Augustins4 r. des Grands-Augustins","postCode":"7500675006"}
{"title":"La Tour","address":"31 Nouvelle-Place31 Nouvelle-Place","postCode":"1830018300"}
{"title":"Terre-Mer","address":"16 r. du Jeu-de-Paume16 r. du Jeu-de-Paume","postCode":"5640056400"}
{"title":"La Table des Blot - Auberge du Château","address":"1 Grande-Rue1 Grande-Rue","postCode":"7872078720"}
{"title":"Les Chênes Verts","address":"rte de Villecrozerte de Villecroze","postCode":"8369083690"}
{"title":"La Petite Maison de Cucuron","address":"pl. de l'Étangpl. de l'Étang","postCode":"8416084160"}
{"title":"SaQuaNa","address":"22 pl. Hamelin22 pl. Hamelin","postCode":"1460014600"}
{"title":"La Promenade","address":"2 promenade Jean-Jaurès2 promenade Jean-Jaurès","postCode":"3159031590"}
{"title":"En Pleine Nature","address":"6 pl. de la Mairie6 pl. de la Mairie","postCode":"3113031130"}
{"title":"Mariottat","address":"25 r. L.-Vivent25 r. L.-Vivent","postCode":"4700047000"}
{"title":"Roscanvec","address":"17 r. des Halles17 r. des Halles","postCode":"5600056000"}
{"title":"Le Mas du Langoustier","address":"","postCode":"8340083400"}
{"title":"Umami","address":"8 r. des Dentelles8 r. des Dentelles","postCode":"6700067000"}
{"title":"L'Atelier de Joël Robuchon - St-Germain","address":"5 r. de Montalembert5 r. de Montalembert","postCode":"7500775007"}
{"title":"Michel Sarran","address":"21 bd A.-Duportal21 bd A.-Duportal","postCode":"3100031000"}
{"title":"Hostellerie de Levernois","address":"15 r. du Golf15 r. du Golf","postCode":"2120021200"}
{"title":"La Table de Chaintré","address":"72 pl. du Luminaire72 pl. du Luminaire","postCode":"7157071570"}
{"title":"Le Puits du Trésor","address":"21 rte des Quatre-Châteaux21 rte des Quatre-Châteaux","postCode":"1160011600"}
{"title":"Le Bistrot de Lagarde","address":"rte d'Aptrte d'Apt","postCode":"8440084400"}
{"title":"Le Gambetta","address":"12 r. Gambetta12 r. Gambetta","postCode":"4940049400"}
{"title":"Michel Trama","address":"52 r. Royale52 r. Royale","postCode":"4727047270"}
{"title":"Le Chiquito","address":"3 r. de l'Oise, La Bonneville3 r. de l'Oise, La Bonneville","postCode":"9554095540"}
{"title":"Au Déjeuner de Sousceyrac","address":"r. Pierre-Benoitr. Pierre-Benoit","postCode":"4619046190"}
{"title":"Le Cercle","address":"44 bd Lahitolle44 bd Lahitolle","postCode":"1800018000"}
{"title":"Pertica","address":"15 pl. de la République15 pl. de la République","postCode":"4110041100"}
{"title":"Cayola","address":"76 promenade de Cayola76 promenade de Cayola","postCode":"8518085180"}
{"title":"La Closerie","address":"bd des Platanesbd des Platanes","postCode":"8424084240"}
{"title":"Au Souper Fin","address":"1 rte de Clères1 rte de Clères","postCode":"7669076690"}
{"title":"Le Lièvre Gourmand","address":"28 quai du Châtelet28 quai du Châtelet","postCode":"4500045000"}
{"title":"Septime","address":"80 r. de Charonne80 r. de Charonne","postCode":"7501175011"}
{"title":"La Ribaudière","address":"2 pl. du Port2 pl. du Port","postCode":"1620016200"}
{"title":"Meulien","address":"1 bis av. des Alpes1 bis av. des Alpes","postCode":"7170071700"}
{"title":"L'Essentiel","address":"8 r. de la Clarté8 r. de la Clarté","postCode":"2400024000"}
{"title":"Brikéténia","address":"142 r. de l'Église142 r. de l'Église","postCode":"6421064210"}
{"title":"Auberge du Vert Mont","address":"1318 r. du Mont-Noir1318 r. du Mont-Noir","postCode":"5929959299"}
{"title":"La Coquerie","address":"1 chemin du Cimetière-Marin1 chemin du Cimetière-Marin","postCode":"3420034200"}
{"title":"Le Favre d'Anne","address":"21 bd du Mar.-Foch21 bd du Mar.-Foch","postCode":"4900049000"}
{"title":"Le Camélia","address":"7 quai Georges Clemenceau7 quai Georges Clemenceau","postCode":"7838078380"}
{"title":"Le Village","address":"3 Grande-Rue3 Grande-Rue","postCode":"7816078160"}
{"title":"La Table d'Eugène","address":"18 r. Eugène-Sue18 r. Eugène-Sue","postCode":"7501875018"}
{"title":"Le Bon Accueil","address":"32 Grande-Rue32 Grande-Rue","postCode":"2516025160"}
{"title":"La Rastègue","address":"48 bd du Levant48 bd du Levant","postCode":"8323083230"}
{"title":"Aux Terrasses","address":"18 av. du 23-Janvier18 av. du 23-Janvier","postCode":"7170071700"}
{"title":"Miraflores","address":"60 r. Garibaldi60 r. Garibaldi","postCode":"6900669006"}
{"title":"Le Foch","address":"37 bd Foch37 bd Foch","postCode":"5110051100"}
{"title":"Auberge du Dun","address":"3 rte de Dieppe3 rte de Dieppe","postCode":"7674076740"}
{"title":"Le Park 45","address":"45 bd de la Croisette45 bd de la Croisette","postCode":"0640006400"}
{"title":"La Marande","address":"lieu-dit Mirandelieu-dit Mirande","postCode":"7126071260"}
{"title":"La Gloire","address":"74 av. du Gén.-de-Gaulle74 av. du Gén.-de-Gaulle","postCode":"4520045200"}
{"title":"Auberge St-Jean","address":"8 r. du Pont8 r. du Pont","postCode":"3342033420"}
{"title":"Vieux Pont","address":"","postCode":"1239012390"}
{"title":"Le Belvédère","address":"11 rte du Maquis-Jean-Pierre11 rte du Maquis-Jean-Pierre","postCode":"1234012340"}
{"title":"David Toutain","address":"29 r. Surcouf29 r. Surcouf","postCode":"7500775007"}
{"title":"L'Atlantide 1874 - Maison Guého","address":"5 r. de l'Hermitage5 r. de l'Hermitage","postCode":"4410044100"}
{"title":"Tour d'Argent","address":"15 quai de la Tournelle15 quai de la Tournelle","postCode":"7500575005"}
{"title":"Le Moulin d'Alotz","address":"chemin Alotz-Errotachemin Alotz-Errota","postCode":"6420064200"}
{"title":"Le Cerf","address":"30 r. du Gén.-de-Gaulle30 r. du Gén.-de-Gaulle","postCode":"6752067520"}
{"title":"Le Pily","address":"39 Grande-Rue39 Grande-Rue","postCode":"5010050100"}
{"title":"Château du Mont Joly","address":"6 r. du Mont-Joly6 r. du Mont-Joly","postCode":"3910039100"}
{"title":"Étincelles - La Gentilhommière","address":"","postCode":"2444024440"}
{"title":"L'Aubergade","address":"78 rte Nationale78 rte Nationale","postCode":"8048080480"}
{"title":"La Table des Cordeliers","address":"1 r. des Cordeliers1 r. des Cordeliers","postCode":"3210032100"}
{"title":"Le Jules Verne","address":"2<E>ème</E> étage Tour Eiffel2<E>ème</E> étage Tour Eiffel","postCode":"7500775007"}
{"title":"Le Prieuré","address":"r. de la Mairier. de la Mairie","postCode":"4282042820"}
{"title":"Mon Plaisir","address":"22 lieu-dit Journal22 lieu-dit Journal","postCode":"2519025190"}
{"title":"Au 14 Février","address":"36 r. du Bœuf36 r. du Bœuf","postCode":""}
{"title":"Côté Jardin","address":"14 rte de Bourges14 rte de Bourges","postCode":"4550045500"}
{"title":"Jérémy Galvan","address":"Rue du BoeufRue du Boeuf","postCode":"6900569005"}
{"title":"La Ville Blanche","address":"La Ville BlancheLa Ville Blanche","postCode":"2230022300"}
{"title":"Lou Cigalon-Maison Martin","address":"6 bd Carnot6 bd Carnot","postCode":"0656006560"}
{"title":"La Roya","address":"plage de la Royaplage de la Roya","postCode":"2021720217"}
{"title":"Le Prieuré","address":"7 pl. du Chapitre7 pl. du Chapitre","postCode":"3040030400"}
{"title":"La Robe","address":"3 pl. Reveillère-Lepeaux3 pl. Reveillère-Lepeaux","postCode":"8560085600"}
{"title":"Château Blanchard","address":"36 rte de St-Galmier36 rte de St-Galmier","postCode":"4214042140"}
{"title":"Le Pêché Gourmand","address":"2 rte de Gap2 rte de Gap","postCode":"0510005100"}
{"title":"La Fourchette du Printemps","address":"30 r. du Printemps30 r. du Printemps","postCode":"7501775017"}
{"title":"À Contre Sens","address":"8-10 r. des Croisiers8-10 r. des Croisiers","postCode":"1400014000"}
{"title":"Auberge Le Prieuré","address":"4 Grand'Rue4 Grand'Rue","postCode":"4731047310"}
{"title":"Table - Bruno Verjus","address":"3 r. de Prague3 r. de Prague","postCode":"7501275012"}
{"title":"Haut Bonheur de la Table","address":"18 Grand-Place18 Grand-Place","postCode":"5967059670"}
{"title":"L'Éveil des Sens","address":"429 bd Paul-Lintier429 bd Paul-Lintier","postCode":"5310053100"}
{"title":"Le Moulin des Quatre Saisons","address":"r. Gallienir. Gallieni","postCode":"7220072200"}
{"title":"ES","address":"91 r. de Grenelle91 r. de Grenelle","postCode":"7500775007"}
{"title":"Val d'Auge","address":"805 av. du Gén.-de-Gaulle805 av. du Gén.-de-Gaulle","postCode":"5991059910"}
{"title":"L'Alchémille","address":"53 rte de Lapoutroie53 rte de Lapoutroie","postCode":"6824068240"}
{"title":"Le Sérac","address":"22 r. de la Comtesse22 r. de la Comtesse","postCode":"7417074170"}
{"title":"Au 14 Février","address":"Le Plâtre-DurandLe Plâtre-Durand","postCode":"7157071570"}
{"title":"L'Orée de la Forêt","address":"255 r. de la Forêt255 r. de la Forêt","postCode":"6060060600"}
{"title":"Palm Beach","address":"route des Iles Sanguinairesroute des Iles Sanguinaires","postCode":"2000020000"}
{"title":"Yam'Tcha","address":"121 r. St-Honoré121 r. St-Honoré","postCode":"7500175001"}
{"title":"La Bonne Auberge","address":"15 r. Nationale15 r. Nationale","postCode":"5735057350"}
{"title":"Apicius","address":"20 r. d'Artois20 r. d'Artois","postCode":"7500875008"}
{"title":"Henri et Joseph","address":"4 r. Léo-le-Bourgo4 r. Léo-le-Bourgo","postCode":"5610056100"}
{"title":"Les Pyrénées","address":"19 pl. Ch.-de-Gaulle19 pl. Ch.-de-Gaulle","postCode":"6422064220"}
{"title":"Saturne","address":"17 r. N.-D.-des-Victoires17 r. N.-D.-des-Victoires","postCode":"7500275002"}
{"title":"Gaya Rive Gauche par Pierre Gagnaire","address":"44 r. du Bac44 r. du Bac","postCode":"7500775007"}
{"title":"Château de la Treyne","address":"","postCode":"4620046200"}
{"title":"Intuition","address":"1 r. Alsace-Lorraine1 r. Alsace-Lorraine","postCode":"5000050000"}
{"title":"Le Neuvième Art","address":"173 r. Cuvier173 r. Cuvier","postCode":"6900669006"}
{"title":"Gavroche","address":"4 r. Klein4 r. Klein","postCode":"6700067000"}
{"title":"Les Tables de Gaspard","address":"r. Principaler. Principale","postCode":"0560005600"}
{"title":"St-James Paris","address":"43 av. Bugeaud43 av. Bugeaud","postCode":"7511675116"}
{"title":"Le Montgomerie","address":"356 rte de l'Altiport356 rte de l'Altiport","postCode":"7312073120"}
{"title":"Le Château de Sable","address":"38 r. de l'Europe38 r. de l'Europe","postCode":"2984029840"}
{"title":"Mickaël Féval","address":"11 Petite-Rue-St-Jean11 Petite-Rue-St-Jean","postCode":"1310013100"}
{"title":"Laurent","address":"41 av. Gabriel41 av. Gabriel","postCode":"7500875008"}
{"title":"Auberge St-Walfrid","address":"58 r. de Grosbliederstroff58 r. de Grosbliederstroff","postCode":"5720057200"}
{"title":"Transparence \"La Table de Patrick Fréchin\"","address":"28 r. Stanislas28 r. Stanislas","postCode":"5400054000"}
{"title":"Clovis","address":"21 Grand-Rue21 Grand-Rue","postCode":"0614006140"}
{"title":"Allium","address":"88 bd de Créac'h-Gwen88 bd de Créac'h-Gwen","postCode":"2900029000"}
{"title":"Maison Crouzil et Hôtel L'Écrin","address":"20 les Quais20 les Quais","postCode":"2213022130"}
{"title":"Le Pot d'Étain","address":"4 av. de la République4 av. de la République","postCode":"9040090400"}
{"title":"L'Hysope","address":"25 r. de l'Aurore25 r. de l'Aurore","postCode":"1722017220"}
{"title":"Étude","address":"14 r. Bouquet-de-Longchamp14 r. Bouquet-de-Longchamp","postCode":"7501675016"}
{"title":"Château de Codignat","address":"Bort l'EtangBort l'Etang","postCode":"6319063190"}
{"title":"L'Aromate","address":"2 r. Gustave Deloye2 r. Gustave Deloye","postCode":"0600006000"}
{"title":"Les Genêts","address":"21 bis Rue de l'Océan21 bis Rue de l'Océan","postCode":"8547085470"}
{"title":"Le St-Martin","address":"1 r. du Gén.-Leclerc1 r. du Gén.-Leclerc","postCode":"2520025200"}
{"title":"L'Océan","address":"43 bd Thiers43 bd Thiers","postCode":"6450064500"}
{"title":"Baumanière 1850","address":"rte de Bellecôterte de Bellecôte","postCode":"7312073120"}
{"title":"Pages","address":"4 r. Auguste-Vacquerie4 r. Auguste-Vacquerie","postCode":"7501675016"}
{"title":"La Vieille Tour","address":"75 r. de la Tour75 r. de la Tour","postCode":"2219022190"}
{"title":"La Marine","address":"11 r. de Paris11 r. de Paris","postCode":"5027050270"}
{"title":"Azimut","address":"273 r. de la Madelon273 r. de la Madelon","postCode":"7312073120"}
{"title":"Garance","address":"34 r. St-Dominique34 r. St-Dominique","postCode":"7500775007"}
{"title":"Le Grand Restaurant - Jean-François Piège","address":"7 r. d'Aguesseau7 r. d'Aguesseau","postCode":"7500875008"}
{"title":"Rodolphe","address":"35 r. Percière35 r. Percière","postCode":"7600076000"}
{"title":"L'Émulsion","address":"57 rte de Lyon57 rte de Lyon","postCode":"3808038080"}
{"title":"Le Clos St-Pierre","address":"pl. de la Mairiepl. de la Mairie","postCode":"0665006650"}
{"title":"Le Pousse-Pied","address":"84 bd des Vendéens84 bd des Vendéens","postCode":"8536085360"}
{"title":"Garopapilles","address":"62 r. Abbé-de-L'Epée62 r. Abbé-de-L'Epée","postCode":"3300033000"}
{"title":"Auberge du Paradis","address":"Le Plâtre-DurandLe Plâtre-Durand","postCode":"7157071570"}
{"title":"Le Pavillon","address":"av. du Vergerav. du Verger","postCode":"6252062520"}
{"title":"Racine","address":"6 pl. Godinot6 pl. Godinot","postCode":"5110051100"}
{"title":"Château de Vauchoux","address":"","postCode":"7017070170"}
{"title":"Le Marcq","address":"944 av. de la République944 av. de la République","postCode":"5970059700"}
{"title":"U Santa Marina","address":"Marina di Santa GiuliaMarina di Santa Giulia","postCode":"2013720137"}
{"title":"Pèir","address":"r. de la Comber. de la Combe","postCode":"8422084220"}
{"title":"Palégrié","address":"Les RitonsLes Ritons","postCode":"3825038250"}
{"title":"La Table by La Villa","address":"chemin de Notre-Dame-de-la-Serrachemin de Notre-Dame-de-la-Serra","postCode":"2026020260"}
{"title":"Pertinence","address":"29 r. de l'Exposition29 r. de l'Exposition","postCode":"7500775007"}
{"title":"Le Chateaubriand","address":"129 av. Parmentier129 av. Parmentier","postCode":"7501175011"}
{"title":"Jérôme Feck","address":"19 pl. Mgr-Tissier19 pl. Mgr-Tissier","postCode":"5100051000"}
{"title":"Pierre Reboul","address":"260 r. Guillaume-du-Vair260 r. Guillaume-du-Vair","postCode":"1354613546"}
{"title":"Ken Kawasaki","address":"15 r. Caulaincourt15 r. Caulaincourt","postCode":"7501875018"}
{"title":"Le Skiff Club","address":"1 av. Louis-Gaume1 av. Louis-Gaume","postCode":"3326033260"}
{"title":"Akrame","address":"7 r. Tronchet7 r. Tronchet","postCode":"7500875008"}
{"title":"Le Grand Cap","address":"chemin du Pharechemin du Phare","postCode":"1137011370"}
{"title":"Restaurant H","address":"13 r. Jean-Beausire13 r. Jean-Beausire","postCode":"7500475004"}
{"title":"Sushi B","address":"5 r. Rameau5 r. Rameau","postCode":"7500275002"}
{"title":"Divellec","address":"18 r. Fabert18 r. Fabert","postCode":"7500775007"}
{"title":"La Merise","address":"7 r. d'Eschbach7 r. d'Eschbach","postCode":"6758067580"}
{"title":"Jean Chauvel","address":"33 av. Général-Leclerc33 av. Général-Leclerc","postCode":"9210092100"}
{"title":"Montée","address":"9 r. Léopold-Robert9 r. Léopold-Robert","postCode":"7501475014"}
{"title":"L'Auberge de Bagatelle","address":"489 av. Bollée489 av. Bollée","postCode":"7200072000"}
{"title":"Ima","address":"20 bd de la Tour-d'Auvergne20 bd de la Tour-d'Auvergne","postCode":"3500035000"}
{"title":"Comice","address":"31 av. de Versailles31 av. de Versailles","postCode":"7501675016"}
{"title":"La Table d'Hôtes - Le Quatrième Mur","address":"2 pl. de la Comédie2 pl. de la Comédie","postCode":"3300033000"}
{"title":"La Table de la Ferme","address":"Vallée de l'OrtoloVallée de l'Ortolo","postCode":"2010020100"}
{"title":"Jean Sulpice","address":"303 rte du Port303 rte du Port","postCode":"7429074290"}
{"title":"Quinsou","address":"33 r. de l'Abbé-Grégoire33 r. de l'Abbé-Grégoire","postCode":"7500675006"}
{"title":"Le Jardin des Remparts","address":"10 rue Hôtel-Dieu10 rue Hôtel-Dieu","postCode":"2120021200"}
{"title":"Frédéric Doucet","address":"2 avenue de la Libération2 avenue de la Libération","postCode":"7112071120"}
{"title":"Le Pré Catelan","address":"Route de SuresnesRoute de Suresnes","postCode":"7501675016"}
{"title":"Aigue Marine","address":"5 r. M. -Berthelot5 r. M. -Berthelot","postCode":"2222022220"}
{"title":"Le 39V","address":"39 Avenue George V39 Avenue George V","postCode":"7500875008"}
{"title":"Le Saint-Estève","address":"2250 route cézanne D172250 route cézanne D17","postCode":"1310013100"}
{"title":"JY'S","address":"17 r. de la Poissonnerie17 r. de la Poissonnerie","postCode":"6800068000"}
{"title":"Restaurant du Palais Royal","address":"110 Galerie de Valois - Jardin du Palais Royal110 Galerie de Valois - Jardin du Palais Royal","postCode":"7500175001"}
{"title":"Auberge de l'Île Barbe","address":"1 Place Notre-Dame1 Place Notre-Dame","postCode":"6900969009"}
{"title":"Les Pêcheurs","address":"10 boulevard du Maréchal-Juin10 boulevard du Maréchal-Juin","postCode":"0660006600"}
{"title":"La Table de Franck Putelat","address":"80 chemin des Anglais80 chemin des Anglais","postCode":"1100011000"}
{"title":"Le Restaurant","address":"13 rue des Beaux-Arts13 rue des Beaux-Arts","postCode":"7500675006"}
{"title":"Christophe Bacquié","address":"Hotel du Castellet Route des Hauts du CampHotel du Castellet Route des Hauts du Camp","postCode":"8333083330"}
{"title":"L'Orangerie du Château","address":"1 Avenue du Docteur Jean Laigret1 Avenue du Docteur Jean Laigret","postCode":"4100041000"}
{"title":"Fanny Rey & Jonathan Wahid","address":"12, boulevard Mirabeau12, boulevard Mirabeau","postCode":"1321013210"}
{"title":"Paul Bocuse","address":"40 Quai de la Plage40 Quai de la Plage","postCode":"6966069660"}
{"title":"Les Tablettes de Jean-Louis Nomicos","address":"16 Avenue Bugeaud16 Avenue Bugeaud","postCode":"7501675016"}
{"title":"La Liégeoise","address":"digue de merdigue de mer","postCode":"6293062930"}
{"title":"Numéro 3","address":"3 rue du Général de Gaulle3 rue du Général de Gaulle","postCode":"7849078490"}
{"title":"Paloma","address":"47 Avenue du Moulin de la Croix47 Avenue du Moulin de la Croix","postCode":"0625006250"}
{"title":"L'Almandin","address":"Boulevard de l'AlmandinBoulevard de l'Almandin","postCode":"6675066750"}
{"title":"La Tour des Vents","address":"Le Moulin de MalfouratLe Moulin de Malfourat","postCode":"2424024240"}
{"title":"Patrick Jeffroy","address":"20 rue du Kelenn20 rue du Kelenn","postCode":"2966029660"}
{"title":"Mère Brazier","address":"12 rue Royale12 rue Royale","postCode":"6900169001"}
{"title":"Le Violon d'Ingres","address":"135 Rue Saint-Dominique135 Rue Saint-Dominique","postCode":"7500775007"}
{"title":"Le Moulin du Roc","address":"Avenue Eugène Le RoyAvenue Eugène Le Roy","postCode":"2453024530"}
{"title":"Mathieu Pacaud - Histoires","address":"85 Avenue Kléber85 Avenue Kléber","postCode":"7501675016"}
{"title":"Têtedoie","address":"4 Rue Professeur Pierre Marion4 Rue Professeur Pierre Marion","postCode":"6900569005"}
{"title":"Le Cloître","address":"Le CloitreLe Cloitre","postCode":"0430004300"}
{"title":"Sur Mesure par Thierry Marx","address":"251 Rue Saint Honoré251 Rue Saint Honoré","postCode":"7500175001"}
{"title":"Le Quinzième - Cyril Lignac","address":"14 rue Cauchy14 rue Cauchy","postCode":"7501575015"}
{"title":"Le Relais Bernard Loiseau","address":"2, rue d'Argentine2, rue d'Argentine","postCode":"2121021210"}
{"title":"Hostellerie de l'Abbaye de la Celle","address":"10 Place Général de Gaulle10 Place Général de Gaulle","postCode":"8317083170"}
{"title":"1217","address":"le bourgle bourg","postCode":"6962069620"}
{"title":"Le Taillevent","address":"15 Rue Lamennais15 Rue Lamennais","postCode":"7500875008"}
{"title":"Assiette Champenoise","address":"40 av. Paul Vaillant-Couturier40 av. Paul Vaillant-Couturier","postCode":"5143051430"}
{"title":"Hostellerie Bérard","address":"Avenue Gabriel-PériAvenue Gabriel-Péri","postCode":"8374083740"}
{"title":"Le Chiberta","address":"3 Rue Arsène Houssaye3 Rue Arsène Houssaye","postCode":"7500875008"}
{"title":"Le Petit Nice","address":"Anse de Maldormé - Corniche J. F. KennedyAnse de Maldormé - Corniche J. F. Kennedy","postCode":"1300713007"}
{"title":"La Barbacane","address":"Place Auguste-Pierre-PontPlace Auguste-Pierre-Pont","postCode":"1100011000"}
{"title":"Le Fanal","address":"17 Avenue du Fontaulé17 Avenue du Fontaulé","postCode":"6665066650"}
{"title":"Au Trou Gascon","address":"40 rue Taine40 rue Taine","postCode":"7501275012"}
{"title":"Carré des Feuillants","address":"14 rue de Castiglione14 rue de Castiglione","postCode":"7500175001"}
{"title":"Le Hittau","address":"1 rue du Nouaou1 rue du Nouaou","postCode":"4023040230"}
{"title":"Dominique Bouchet","address":"11 Rue Treilhard11 Rue Treilhard","postCode":"7500875008"}
{"title":"Mirazur","address":"30, Avenue Aristide Briand30, Avenue Aristide Briand","postCode":"0650006500"}
{"title":"G.a. au Manoir de Rétival","address":"2 rue St. Clair2 rue St. Clair","postCode":"7649076490"}
{"title":"Gill","address":"9 quai de la Bourse9 quai de la Bourse","postCode":"7600076000"}
{"title":"Le Magasin aux Vivres","address":"5 Avenue Ney5 Avenue Ney","postCode":"5700057000"}
{"title":"La Dame de Pic","address":"20 Rue du Louvre20 Rue du Louvre","postCode":"7500175001"}
{"title":"L'Aparté","address":"21 Rue de l’Europe21 Rue de l’Europe","postCode":"3185031850"}
{"title":"Le Pressoir","address":"7 r. de l'Hôpital7 r. de l'Hôpital","postCode":"5689056890"}
{"title":"Château de Pray","address":"Rue du CèdreRue du Cèdre","postCode":"3740037400"}
{"title":"Il Carpaccio","address":"37 avenue Hoche37 avenue Hoche","postCode":"7500875008"}
{"title":"Aux Pesked","address":"59 Rue du Légué59 Rue du Légué","postCode":"2200022000"}
{"title":"En Marge","address":"1204 route de la Croix-Falgarde1204 route de la Croix-Falgarde","postCode":"3132031320"}
{"title":"Auberge du Vieux Puits","address":"5 Avenue Saint-Victor5 Avenue Saint-Victor","postCode":"1136011360"}
{"title":"Domaine d'Auriac","address":"Route de Saint-HilaireRoute de Saint-Hilaire","postCode":"1100011000"}
{"title":"L'Oustau de Baumanière","address":"Village des Baux-de-ProvenceVillage des Baux-de-Provence","postCode":"1352013520"}
{"title":"Les Fresques","address":"D18D18","postCode":"2424024240"}
{"title":"Bruno","address":"2350 route des Arcs, Campagne Mariette2350 route des Arcs, Campagne Mariette","postCode":"8351083510"}
{"title":"Le Brittany","address":"bd Ste-Barbebd Ste-Barbe","postCode":"2968129681"}
{"title":"La Maison de Bournissac","address":"montée d'Eyraguesmontée d'Eyragues","postCode":"1355013550"}
{"title":"Le Quincangrogne","address":"7 Rue de l'Abreuvoir7 Rue de l'Abreuvoir","postCode":"7740077400"}
{"title":"Auberge du Bon Laboureur","address":"6 r. Dr Bretonneau6 r. Dr Bretonneau","postCode":"3715037150"}
{"title":"J.-M. Pérochon","address":"63 avenue de la Grand'Roche63 avenue de la Grand'Roche","postCode":"8547085470"}
{"title":"Les Bacchanales","address":"247 avenue de Provence247 avenue de Provence","postCode":"0614006140"}
{"title":"Les Bas-Rupts","address":"181 rte de la Bresse181 rte de la Bresse","postCode":"8840088400"}
{"title":"Stéphane Derbord","address":"10 Place du Président Wilson10 Place du Président Wilson","postCode":"2100021000"}
{"title":"Auberge des Templiers","address":"D2007D2007","postCode":"4529045290"}
{"title":"Relais de la Poste","address":"21 rue du Gén. -de-Gaulle21 rue du Gén. -de-Gaulle","postCode":"6761067610"}
{"title":"La Coopérative","address":"2A Route de Caladroy2A Route de Caladroy","postCode":"6672066720"}
{"title":"Ô Flaveurs","address":"Château de ChillyChâteau de Chilly","postCode":"7414074140"}
{"title":"La Table de Patrick Raingeard","address":"1312 av. Raymond-Poincaré1312 av. Raymond-Poincaré","postCode":"0636006360"}
{"title":"Le Clarence","address":"31 Avenue Franklin Delano Roosevelt31 Avenue Franklin Delano Roosevelt","postCode":"7500875008"}
{"title":"Raphaël Vionnet","address":"43 Avenue du Général Leclerc43 Avenue du Général Leclerc","postCode":"7420074200"}
{"title":"Ivan Vautier","address":"3 avenue Henry-Chéron3 avenue Henry-Chéron","postCode":"1400014000"}
{"title":"Yoann Conte","address":"13 Vieille-Route-des-Pensières13 Vieille-Route-des-Pensières","postCode":"7429074290"}
{"title":"Le Coquillage","address":"Lieu-dit Le BuotLieu-dit Le Buot","postCode":"3535035350"}
{"title":"L'Atelier d'Edmond","address":"au Fornetau Fornet","postCode":"7315073150"}
{"title":"Loiseau rive Gauche","address":"5 rue de Bourgogne5 rue de Bourgogne","postCode":"7500775007"}
{"title":"L'Essentiel","address":"29 Rue Mirabeau29 Rue Mirabeau","postCode":"1480014800"}
{"title":"Maison Clovis","address":"19 bd Brotteaux19 bd Brotteaux","postCode":"6900669006"}
{"title":"La Rotonde","address":"200 avenue du Casino200 avenue du Casino","postCode":"6989069890"}
{"title":"La Marelle","address":"1593 av. de Lyon1593 av. de Lyon","postCode":"0196001960"}
{"title":"Le Bénaton","address":"25 Rue du Faubourg-Bretonnière25 Rue du Faubourg-Bretonnière","postCode":"2120021200"}
{"title":"Ithurria","address":"pl. du Frontonpl. du Fronton","postCode":"6425064250"}
{"title":"Relais de la Poste","address":"24 avenue de Maremne24 avenue de Maremne","postCode":"4014040140"}
{"title":"Le Moulin de l'Abbaye","address":"1 avenue Pierre de Bourdeilles1 avenue Pierre de Bourdeilles","postCode":"2431024310"}
{"title":"Chez Michèle","address":"57 rue Principale57 rue Principale","postCode":"5781057810"}
{"title":"Le Kléber","address":"6 r. A. -Dumont6 r. A. -Dumont","postCode":"2640026400"}
{"title":"Auguste","address":"54 r. Bourgogne54 r. Bourgogne","postCode":"7500775007"}
{"title":"Dyades au Domaine des Étangs","address":"Les EtangsLes Etangs","postCode":"1631016310"}
{"title":"Le Cerisier","address":"3 rue de la Gare3 rue de la Gare","postCode":"6284062840"}
{"title":"L'Auberge Basque","address":"quartier Helbarronquartier Helbarron","postCode":"6431064310"}
{"title":"La Bonne Étape","address":"chemin du lacchemin du lac","postCode":"0416004160"}
{"title":"La Bastide de Moustiers","address":"Parc naturel régional du Verdon, Chemin de QuinsonParc naturel régional du Verdon, Chemin de Quinson","postCode":"0436004360"}
{"title":"Restaurant du Château","address":"15 avenue des Reynats15 avenue des Reynats","postCode":"2465024650"}
{"title":"Château de Courban","address":"7 rue du Lavoir7 rue du Lavoir","postCode":"2152021520"}
{"title":"Pierre Gagnaire","address":"6 Rue Balzac6 Rue Balzac","postCode":"7500875008"}
{"title":"William Frachot","address":"5 rue Michelet5 rue Michelet","postCode":"2100021000"}
{"title":"Le Pergolèse","address":"40 Rue Pergolèse40 Rue Pergolèse","postCode":"7511675116"}
{"title":"Le Pavillon des Boulevards","address":"120 r. Croix-de-Seguey120 r. Croix-de-Seguey","postCode":"3300033000"}
{"title":"Alain Llorca","address":"350 Route de Saint-Paul350 Route de Saint-Paul","postCode":"0648006480"}
{"title":"Loiseau des Vignes","address":"31 Rue Jean Francois Maufoux31 Rue Jean Francois Maufoux","postCode":"2120021200"}
{"title":"La Chaumière","address":"346 av. du Mar. -Juin346 av. du Mar. -Juin","postCode":"3910039100"}
{"title":"Hostellerie du Rosenmeer","address":"45 avenue de la Gare45 avenue de la Gare","postCode":"6756067560"}
{"title":"Initial","address":"24 Rue Saint-Manvieu24 Rue Saint-Manvieu","postCode":"1400014000"}
{"title":"Pierre Orsi","address":"Place KléberPlace Kléber","postCode":"6900669006"}
{"title":"L'Auberge de la Pomme","address":"44 rue de l' eure44 rue de l' eure","postCode":"2734027340"}
{"title":"La Licorne Royale","address":"27 Place Isaac Benserade27 Place Isaac Benserade","postCode":"2748027480"}
{"title":"Alléno Paris au Pavillon Ledoyen","address":"8 avenue Dutuit8 avenue Dutuit","postCode":"7500875008"}
{"title":"Julien Binz","address":"7 Rue des Cigognes7 Rue des Cigognes","postCode":"6877068770"}
{"title":"Domaine de Clairefontaine","address":"chemin des Fontanetteschemin des Fontanettes","postCode":"3812138121"}
{"title":"Faventia","address":"3100 route de Bagnols-en-Forêt3100 route de Bagnols-en-Forêt","postCode":"8344083440"}
{"title":"L'Ekrin by Laurent Azoulay","address":"Route de la MontéeRoute de la Montée","postCode":"7355073550"}
{"title":"Le M","address":"22 r. du Cdt-Drogou22 r. du Cdt-Drogou","postCode":"2920029200"}
{"title":"Les Morainières","address":"route de Marételroute de Marétel","postCode":"7317073170"}
{"title":"Le Baudelaire","address":"8 rue Duphot8 rue Duphot","postCode":"7500175001"}
{"title":"Le Moulin de la Gorce","address":"D17D17","postCode":"8780087800"}
{"title":"Le Prince Noir - Vivien Durand","address":"1 rue du Prince Noir1 rue du Prince Noir","postCode":"3331033310"}
{"title":"Le Clos des Sens","address":"13 r. J. -Mermoz13 r. J. -Mermoz","postCode":"7494074940"}
{"title":"Le Chantecler","address":"37 Promenade des Anglais37 Promenade des Anglais","postCode":"0600006000"}
{"title":"Le Carmin","address":"4B Place Carnot4B Place Carnot","postCode":"2120021200"}
{"title":"Benoit","address":"20 Rue St-Martin20 Rue St-Martin","postCode":"7500475004"}
{"title":"Hostellerie la Montagne","address":"10 rue Pisseloup10 rue Pisseloup","postCode":"5233052330"}
{"title":"Entre Vigne et Garrigue","address":"600 route de Saint Bruno600 route de Saint Bruno","postCode":"3013130131"}
{"title":"Au Vieux Couvent","address":"6 r. des Chanoines6 r. des Chanoines","postCode":"6786067860"}
{"title":"Le Bouche à Oreille","address":"11 r. de la Chapelle11 r. de la Chapelle","postCode":"9115091150"}
{"title":"Le Refuge des Gourmets","address":"90 route des Framboises90 route des Framboises","postCode":"7414074140"}
{"title":"L'O des Vignes","address":"r. du Bourgr. du Bourg","postCode":"7196071960"}
{"title":"Maximin Hellio","address":"64 Rue Gambetta64 Rue Gambetta","postCode":"1480014800"}
{"title":"Greuze","address":"1 r. A. Thibaudet1 r. A. Thibaudet","postCode":"7170071700"}
{"title":"L'Oasis","address":"6 rue Jean-Honoré Carle6 rue Jean-Honoré Carle","postCode":"0621006210"}
{"title":"JAN","address":"12 Rue Lascaris12 Rue Lascaris","postCode":"0600006000"}
{"title":"Une Table au Sud","address":"2 quai du Port2 quai du Port","postCode":"1300213002"}
{"title":"Hostellerie Les Gorges de Pennafort","address":"8660 RD 258660 RD 25","postCode":"8383083830"}
{"title":"Auberge La Pomme d'Api","address":"49 r. Verderel49 r. Verderel","postCode":"2925029250"}
{"title":"La Madeleine","address":"1 Rue Alsace-Lorraine1 Rue Alsace-Lorraine","postCode":"8910089100"}
{"title":"Le Corot","address":"55 Rue de Versailles55 Rue de Versailles","postCode":"9241092410"}
{"title":"Le Relais des Moines","address":"route de Ste-Roselineroute de Ste-Roseline","postCode":"8346083460"}
{"title":"Cyril Attrazic","address":"10 rte du Languedoc10 rte du Languedoc","postCode":"4813048130"}
{"title":"Pont de l'Ouysse","address":"D23D23","postCode":"4620046200"}
{"title":"Les Hautes Roches","address":"86 quai de Loire86 quai de Loire","postCode":"3721037210"}
{"title":"Auberge Tiegezh","address":"7 Place de la Gare7 Place de la Gare","postCode":"5638056380"}
{"title":"Le Grand Cerf","address":"50 rte Nationale50 rte Nationale","postCode":"5150051500"}
{"title":"La Grande Cascade","address":"Bois de Boulogne, Carrefour de LongchampBois de Boulogne, Carrefour de Longchamp","postCode":"7501675016"}
{"title":"Le Jardin de Benjamin","address":"Route de SalernesRoute de Salernes","postCode":"8351083510"}
{"title":"Villa Archange","address":"Rue de l'OuestRue de l'Ouest","postCode":"0611006110"}
{"title":"Le Carrousel","address":"14 rue du Pont de Morge14 rue du Pont de Morge","postCode":"6335063350"}
{"title":"MaSa","address":"112 avenue Victor-Hugo112 avenue Victor-Hugo","postCode":"9210092100"}
{"title":"La Gouesnière","address":"1 Le Limonay1 Le Limonay","postCode":"3535035350"}
{"title":"Anne de Bretagne","address":"163, Boulevard de la Tara163, Boulevard de la Tara","postCode":"4477044770"}
{"title":"Le Pré du Moulin","address":"rte de Ste-Cécile-les-Vignesrte de Ste-Cécile-les-Vignes","postCode":"8483084830"}
{"title":"La Scène","address":"33 Avenue George V33 Avenue George V","postCode":"7500875008"}
{"title":"Villa René Lalique","address":"18 Rue Bellevue18 Rue Bellevue","postCode":"6729067290"}
{"title":"Domaine de Rochevilaine","address":"à la Pointe de Pen Lanà la Pointe de Pen Lan","postCode":"5619056190"}
{"title":"La Villa Madie","address":"av. du Revestelav. du Revestel","postCode":"1326013260"}
{"title":"Château de Sully","address":"D6D6","postCode":"1440014400"}
{"title":"1912","address":"bd de la Cahottebd de la Cahotte","postCode":"1436014360"}
{"title":"La Grand'Vigne","address":"chemin de Smith-Haut-Lafittechemin de Smith-Haut-Lafitte","postCode":"3365033650"}
{"title":"Maison Kieny","address":"7 Rue du Général de Gaulle7 Rue du Général de Gaulle","postCode":"6840068400"}
{"title":"Domaine des Séquoias","address":"54 Vie-de-Boussieu54 Vie-de-Boussieu","postCode":"3830038300"}
{"title":"Auberge de l'Ill","address":"2 rue de Collonges-au-Mont d'Or2 rue de Collonges-au-Mont d'Or","postCode":"6897068970"}
{"title":"Le Meurice Alain Ducasse","address":"228 Rue de Rivoli228 Rue de Rivoli","postCode":"7500175001"}
{"title":"L'Auberge des Glazicks","address":"7 rue de la Plage7 rue de la Plage","postCode":"2955029550"}
{"title":"Helen","address":"3 r.Berryer3 r.Berryer","postCode":"7500875008"}
{"title":"L'Ambroisie","address":"9 Place des Vosges9 Place des Vosges","postCode":"7500475004"}
{"title":"Girardin","address":"19 Rue des Têtes19 Rue des Têtes","postCode":"6800068000"}
{"title":"La Table des Merville","address":"3 place Richard3 place Richard","postCode":"3132031320"}
{"title":"Le Vivarais","address":"5 avenue Expilly5 avenue Expilly","postCode":"0760007600"}
{"title":"Michel Chabran - La Grande Table","address":"29 Avenue du Quarante-Cinquième Parallèle29 Avenue du Quarante-Cinquième Parallèle","postCode":"2660026600"}
{"title":"Pic","address":"285 avenue Victor Hugo285 avenue Victor Hugo","postCode":"2600026000"}
{"title":"L'Odas","address":"Passage Maurice LenfantPassage Maurice Lenfant","postCode":"7600076000"}
{"title":"Auberge du Cheval Blanc","address":"4 Route de Wissembourg4 Route de Wissembourg","postCode":"6751067510"}
{"title":"Jérôme Brochot","address":"Place BeaubernardPlace Beaubernard","postCode":"7130071300"}
{"title":"La Passagère","address":"33 boulevard E. -Baudoin33 boulevard E. -Baudoin","postCode":"0616006160"}
{"title":"Le St-Placide","address":"6 place du poncel6 place du poncel","postCode":"3540035400"}
{"title":"Le Parc Les Crayères","address":"64 Boulevard Henry Vasnier64 Boulevard Henry Vasnier","postCode":"5110051100"}
{"title":"La Côte Saint-Jacques","address":"14 faubourg de Paris14 faubourg de Paris","postCode":"8930089300"}
{"title":"Radio","address":"43 av. P. et M.-Curie43 av. P. et M.-Curie","postCode":"6340063400"}
{"title":"Domaine des Hauts de Loire","address":"79 rue Gilbert Navard79 rue Gilbert Navard","postCode":"4115041150"}
{"title":"Le Gabriel","address":"42 Avenue Gabriel42 Avenue Gabriel","postCode":"7500875008"}
{"title":"L'Arnsbourg","address":"UntermuhlthalUntermuhlthal","postCode":"5723057230"}
{"title":"Le Georges","address":"22 pl. des Épars22 pl. des Épars","postCode":"2800028000"}
{"title":"Maison Decoret","address":"15 rue du Parc15 rue du Parc","postCode":"0320003200"}
{"title":"Le Castellaras","address":"461 chemin Peymeyan461 chemin Peymeyan","postCode":"8344083440"}
{"title":"Guy Savoy","address":"Monnaie de Paris11 Quai de ContiMonnaie de Paris11 Quai de Conti","postCode":"7500675006"}
{"title":"Le Roc Alto","address":"Quartier La VilleQuartier La Ville","postCode":"0535005350"}
{"title":"Lucas Carton","address":"9 pl. de la Madeleine9 pl. de la Madeleine","postCode":"7500875008"}
{"title":"L'Arcane","address":"39 Rue Lamarck39 Rue Lamarck","postCode":"7501875018"}
{"title":"Le Haut-Allier","address":"LE PONT D ALLEYRASLE PONT D ALLEYRAS","postCode":"4358043580"}
{"title":"Georges Blanc","address":"pl. du Marchépl. du Marché","postCode":"0154001540"}
{"title":"Auberge de la Tour","address":"Place de la FontainePlace de la Fontaine","postCode":"1522015220"}
{"title":"Lasserre","address":"17 Avenue F. -D. -Roosevelt17 Avenue F. -D. -Roosevelt","postCode":"7500875008"}
{"title":"L'Amaryllis","address":"chemin de Martoreychemin de Martorey","postCode":"7110071100"}
{"title":"Hostellerie Jérôme","address":"20 r. Comte de Cessole20 r. Comte de Cessole","postCode":"0632006320"}
{"title":"Le Millénaire","address":"4 rue Bertin4 rue Bertin","postCode":"5110051100"}
{"title":"1131","address":"D 33D 33","postCode":"2136021360"}
{"title":"Manoir de la Boulaie","address":"33 rue Chapelle St-Martin33 rue Chapelle St-Martin","postCode":"4411544115"}
{"title":"Shang Palace","address":"10 Avenue d'Iéna10 Avenue d'Iéna","postCode":"7501675016"}
{"title":"Frédéric Simonin","address":"25 rue Bayen25 rue Bayen","postCode":"7501775017"}
{"title":"Le Sénéchal","address":"Sauveterre de RouergueSauveterre de Rouergue","postCode":"1280012800"}
{"title":"L'Amphitryon","address":"127 r. du Col. -Müller127 r. du Col. -Müller","postCode":"5610056100"}
{"title":"Loiseau des Ducs","address":"3 Rue Vauban3 Rue Vauban","postCode":"2100021000"}
{"title":"Maison Rostang","address":"20 rue Rennequin20 rue Rennequin","postCode":"7501775017"}
{"title":"Flaveur","address":"25 Rue Gubernatis25 Rue Gubernatis","postCode":"0600006000"}
{"title":"Le Domaine du Colombier","address":"270 Chemin de Malombre270 Chemin de Malombre","postCode":"2678026780"}
{"title":"Les Terraillers","address":"11 Route Chemin-Neuf11 Route Chemin-Neuf","postCode":"0641006410"}
{"title":"Les Rosiers","address":"32 av. Beau Soleil32 av. Beau Soleil","postCode":"6420064200"}
{"title":"Jean-Luc Tartarin","address":"Square Saint-RochSquare Saint-Roch","postCode":"7660076600"}
{"title":"Les Explorateurs","address":"place du Slalomplace du Slalom","postCode":"7344073440"}
{"title":"Le Jasmin","address":"Lieu-dit LalandeLieu-dit Lalande","postCode":"4714047140"}
{"title":"La Table de l'Espadon","address":"15 Place Vendôme15 Place Vendôme","postCode":"7500175001"}
{"title":"Alexandre","address":"2 rue Xavier Tronc2 rue Xavier Tronc","postCode":"3012830128"}
{"title":"Chapelle Saint-Martin","address":"33, Saint Martin du Fault33, Saint Martin du Fault","postCode":"8751087510"}
{"title":"Origine","address":"26 Rampe Cauchoise26 Rampe Cauchoise","postCode":"7600076000"}
{"title":"La Scène Thélème","address":"18 Rue Troyon18 Rue Troyon","postCode":"7501775017"}
{"title":"La Palme d'Or","address":"73 Boulevard de la Croisette73 Boulevard de la Croisette","postCode":"0640006400"}
{"title":"Régis et Jacques Marcon","address":"LarsiallasLarsiallas","postCode":"4329043290"}
{"title":"Le Bois sans Feuilles","address":"728 Route de Villerest728 Route de Villerest","postCode":"4215542155"}
{"title":"Auberge de la Diligence","address":"4 r. de la Libération4 r. de la Libération","postCode":"4944049440"}
{"title":"Le P'tit Polyte","address":"2 Rue de la Chapelle2 Rue de la Chapelle","postCode":"3886038860"}
{"title":"Pur' - Jean-François Rouquette","address":"5 r. de la Paix5 r. de la Paix","postCode":"7500275002"}
{"title":"Neige d'Été","address":"12 Rue de l'Amiral Roussin12 Rue de l'Amiral Roussin","postCode":"7501575015"}
{"title":"Ô Saveurs","address":"8 place Ormeaux au village8 place Ormeaux au village","postCode":"3118031180"}
{"title":"La Mare aux Oiseaux","address":"223 RUE DU CHEF DE L'ILE Fedrun223 RUE DU CHEF DE L'ILE Fedrun","postCode":"4472044720"}
{"title":"La Table de La Butte","address":"10 rue de la Mer10 rue de la Mer","postCode":"2926029260"}
{"title":"Le Candille","address":"bd C. Rebuffelbd C. Rebuffel","postCode":"0625006250"}
{"title":"64° Le Restaurant","address":"9-13 Rue du Général de Gaulle9-13 Rue du Général de Gaulle","postCode":"6824068240"}
{"title":"Hélène Darroze","address":"4 rue d'Assas4 rue d'Assas","postCode":"7500675006"}
{"title":"L'Abeille","address":"10 Avenue d'Iéna10 Avenue d'Iéna","postCode":"7501675016"}
{"title":"L'Atelier de Gaztelur","address":"Chemin de GastelhurChemin de Gastelhur","postCode":"6420064200"}
{"title":"La Bastide St-Antoine","address":"48 av. Henri-Dunant48 av. Henri-Dunant","postCode":"0613006130"}
{"title":"Ed.Em","address":"4 imp. Chenevottes4 imp. Chenevottes","postCode":"2119021190"}
{"title":"Antoine","address":"10 av. de New-York10 av. de New-York","postCode":"7511675116"}
{"title":"L'Épuisette","address":"158 Vallon-des-Auffes158 Vallon-des-Auffes","postCode":"1300713007"}
{"title":"Flocons de Sel","address":"1775 rte du Leutaz1775 rte du Leutaz","postCode":"7412074120"}
{"title":"Auberge à la Bonne Idée","address":"3 rue des Meuniers3 rue des Meuniers","postCode":"6035060350"}
{"title":"Le Carré d'Alethius","address":"4 r. Paul-Bertois4 r. Paul-Bertois","postCode":"0780007800"}
{"title":"Cobéa","address":"11 r. Raymond Losserand11 r. Raymond Losserand","postCode":"7501475014"}
{"title":"Auberge Frankenbourg","address":"13 r. Gén. de Gaulle13 r. Gén. de Gaulle","postCode":"6773067730"}
{"title":"Alcyone","address":"1 Place Daviel1 Place Daviel","postCode":"1300213002"}
{"title":"Les Terrasses de Lyon","address":"25, montée Saint BArthelémy25, montée Saint BArthelémy","postCode":"6900569005"}
{"title":"La Nouvelle Auberge","address":"9 route Nationale9 route Nationale","postCode":"6823068230"}
{"title":"Château d'Adoménil","address":"","postCode":"5430054300"}
{"title":"Hostellerie de Plaisance","address":"5 place du Clocher5 place du Clocher","postCode":"3333033330"}
{"title":"Le Strasbourg","address":"24 r. du Col. -Teyssier24 r. du Col. -Teyssier","postCode":"5723057230"}
{"title":"L'Escarbille","address":"8 Rue de Vélizy8 Rue de Vélizy","postCode":"9219092190"}
{"title":"Alliance","address":"5 Rue de Poissy5 Rue de Poissy","postCode":"7500575005"}
{"title":"Sylvestre","address":"79 rue St-Dominique79 rue St-Dominique","postCode":"7500775007"}
{"title":"Hervé Busset","address":"D901D901","postCode":"1232012320"}
{"title":"Le Belrose","address":"Boulevard des CrêtesBoulevard des Crêtes","postCode":"8358083580"}
{"title":"Les Prés d'Eugénie - Michel Guérard","address":"pl. de l'Impératricepl. de l'Impératrice","postCode":"4032040320"}
{"title":"Épicure","address":"112 r. Fg St-Honoré112 r. Fg St-Honoré","postCode":"7500875008"}
{"title":"Les Jardins de l'Espadon","address":"15 place Vendôme15 place Vendôme","postCode":"7500175001"}
{"title":"Maison Lameloise","address":"36 pl. d'Armes36 pl. d'Armes","postCode":"7115071150"}
{"title":"Penati al Baretto","address":"9 rue Balzac9 rue Balzac","postCode":"7500875008"}
{"title":"La Bergerie","address":"D999D999","postCode":"6349063490"}
{"title":"Le Gindreau","address":"D5D5","postCode":"4615046150"}
{"title":"Ar Men Du","address":"47 rue des îles47 rue des îles","postCode":"2992029920"}
{"title":"Le Grand Véfour","address":"17 rue de Beaujolais17 rue de Beaujolais","postCode":"7500175001"}
{"title":"Atmosphères","address":"618 Route des Tournelles618 Route des Tournelles","postCode":"7337073370"}
{"title":"La Galinette","address":"23 r. Jean Payra23 r. Jean Payra","postCode":"6600066000"}
{"title":"Thierry Drapeau","address":"La ChabotterieLa Chabotterie","postCode":"8526085260"}
{"title":"Hexagone","address":"85 Avenue Kléber85 Avenue Kléber","postCode":"7501675016"}
{"title":"Auberge de Clochemerle","address":"Rue Gabriel-ChevallierRue Gabriel-Chevallier","postCode":"6946069460"}
{"title":"L'Amphitryon","address":"chemin de Gramontchemin de Gramont","postCode":"3177031770"}
{"title":"Le Jardin des Plumes","address":"1 Rue du Milieu1 Rue du Milieu","postCode":"2762027620"}
{"title":"Assa","address":"189 Quai Ulysse Besnard189 Quai Ulysse Besnard","postCode":"4100041000"}
{"title":"L'Atelier de Jean-Luc Rabanel","address":"7 r. des Carmes7 r. des Carmes","postCode":"1320013200"}
{"title":"L'Impertinent","address":"5, rue d'Alsace5, rue d'Alsace","postCode":"6420064200"}
{"title":"Le Farçon","address":"immeuble la Kalinkaimmeuble la Kalinka","postCode":"7312573125"}
{"title":"Le Figuier de St-Esprit","address":"7, Promenade Amiral de Grasse7, Promenade Amiral de Grasse","postCode":"0660006600"}
{"title":"La Maison d'à Côté","address":"17 rue de Chambord17 rue de Chambord","postCode":"4135041350"}
{"title":"Kasbür","address":"8 Rue de Dettwiller8 Rue de Dettwiller","postCode":"6770067700"}
{"title":"Il Cortile","address":"11 r. des Franciscains11 r. des Franciscains","postCode":"6810068100"}
{"title":"Le Saison","address":"1 imp. du Vieux-Bourg1 imp. du Vieux-Bourg","postCode":"3576035760"}
{"title":"Le Domaine de la Corniche","address":"5 rte de la Corniche5 rte de la Corniche","postCode":"7827078270"}
{"title":"Lamartine","address":"Route du Tunnel du ChatRoute du Tunnel du Chat","postCode":"7337073370"}
{"title":"Jérôme Nutile - Le Mas de Boudan","address":"351 Chemin du Mas de Boudan351 Chemin du Mas de Boudan","postCode":"3000030000"}
{"title":"Le Petit Hôtel du Grand Large","address":"11 quai St-Ivy11 quai St-Ivy","postCode":"5651056510"}
{"title":"La Promenade","address":"11 rue du Savoureulx11 rue du Savoureulx","postCode":"3735037350"}
{"title":"Le Raisin","address":"2 pl. M. -Poisat2 pl. M. -Poisat","postCode":"0119001190"}
{"title":"Le Patio","address":"10 bd de la Plage10 bd de la Plage","postCode":"3312033120"}
{"title":"Le Colombier","address":"r. Loucheurr. Loucheur","postCode":"7655076550"}
{"title":"Nakatani","address":"27 Rue Pierre Leroux27 Rue Pierre Leroux","postCode":"7500775007"}
{"title":"Le Manoir du Lys","address":"D235D235","postCode":"6114061140"}
{"title":"Auberge au Boeuf","address":"Rue de l'EgliseRue de l'Eglise","postCode":"6777067770"}
{"title":"Château de Mercuès","address":"Route du ChâteauRoute du Château","postCode":"4609046090"}
{"title":"Le Cap","address":"71 Boulevard du Général-de-Gaulle71 Boulevard du Général-de-Gaulle","postCode":"0623006230"}
{"title":"Auberge de la Mine","address":"le Gué-Platle Gué-Plat","postCode":"6145061450"}
{"title":"Xavier Mathieu","address":"Route de MursRoute de Murs","postCode":"8422084220"}
{"title":"Aux Anges","address":"6 Place Georges Clemenceau6 Place Georges Clemenceau","postCode":"4230042300"}
{"title":"L'Olivier","address":"25 Route des Carles25 Route des Carles","postCode":"8399083990"}
{"title":"Le Pressoir d'Argent - Gordon Ramsay","address":"2,5 Place de la Comédie2,5 Place de la Comédie","postCode":"3300033000"}
{"title":"Kei","address":"5 rue du Coq-Héron5 rue du Coq-Héron","postCode":"7500175001"}
{"title":"La Fourchette des Ducs","address":"6 r. de la Gare6 r. de la Gare","postCode":"6721067210"}
{"title":"La Grande Maison de Bernard Magrez","address":"10 Rue Labottière10 Rue Labottière","postCode":"3300033000"}
{"title":"La Voile","address":"chemin de la Quessinechemin de la Quessine","postCode":"8335083350"}
{"title":"Les Terrasses d'Uriage","address":"pl. Déesse-Hygiepl. Déesse-Hygie","postCode":"3841038410"}
{"title":"Alain Ducasse au Plaza Athénée","address":"25 avenue Montaigne25 avenue Montaigne","postCode":"7500875008"}
{"title":"Takao Takano","address":"33 Rue Malesherbes33 Rue Malesherbes","postCode":"6900669006"}
{"title":"Le Mascaret","address":"1 r. de Bas1 r. de Bas","postCode":"5056050560"}
{"title":"La Table de la Bergerie","address":"La BergerieLa Bergerie","postCode":"4938049380"}
{"title":"Les Fresques","address":"13 Avenue des Mateirons13 Avenue des Mateirons","postCode":"7450074500"}
{"title":"La Gourmandière - La Table d'Olivier","address":"D126D126","postCode":"5600056000"}
{"title":"Auberge de l'Abbaye","address":"47 place des anciens Combattants47 place des anciens Combattants","postCode":"0150001500"}
{"title":"Les Ducs de Lorraine","address":"5 av. Provence5 av. Provence","postCode":"8800088000"}
{"title":"La Table d'Uzès","address":"18 rue du Docteur Blanchard18 rue du Docteur Blanchard","postCode":"3070030700"}
{"title":"AM par Alexandre Mazzia","address":"9 rue François Rocca9 rue François Rocca","postCode":"1300813008"}
{"title":"Les Cèdres","address":"25 Rue Henri MACHON25 Rue Henri MACHON","postCode":"2660026600"}
{"title":"Les Clefs d'Argent","address":"333 Avenue des Martyrs de la Résistance333 Avenue des Martyrs de la Résistance","postCode":"4000040000"}
{"title":"Grand Hôtel du Lion d'Or","address":"69 r. Clemenceau69 r. Clemenceau","postCode":"4120041200"}
{"title":"Dominique Bucaille","address":"715 av. des Savels715 av. des Savels","postCode":"0410004100"}
{"title":"Le Cinq","address":"31 av. George V31 av. George V","postCode":"7500875008"}
{"title":"René et Maxime Meilleur","address":"Saint MarcelSaint Marcel","postCode":"7344073440"}
{"title":"Auberge St-Laurent","address":"1 rue Fontaine1 rue Fontaine","postCode":"6851068510"}
{"title":"Le Clair de la Plume","address":"2 Place du Mail2 Place du Mail","postCode":"2623026230"}
{"title":"Les Berceaux","address":"13 rue des Berceaux13 rue des Berceaux","postCode":"5120051200"}
{"title":"Apicius","address":"Marché Saint Pierre 1 étageMarché Saint Pierre 1 étage","postCode":"6300063000"}
{"title":"L'Écrin","address":"10 place de la Concorde10 place de la Concorde","postCode":"7500875008"}
{"title":"Logis de la Cadène","address":"Place du Marche au BoisPlace du Marche au Bois","postCode":"3333033330"}
{"title":"Les Voiles d'Or","address":"2 chemin de la Falaise2 chemin de la Falaise","postCode":"7620076200"}
{"title":"Jean-Claude Leclerc","address":"12 rue St-Adjutor12 rue St-Adjutor","postCode":"6300063000"}
{"title":"Gordon Ramsay au Trianon","address":"1 bd de la Reine1 bd de la Reine","postCode":"7800078000"}
{"title":"SEPT","address":"7 pl. St-Sernin7 pl. St-Sernin","postCode":"3100031000"}
{"title":"La Pyramide-Patrick Henriroux","address":"14 Boulevard Fernand Point14 Boulevard Fernand Point","postCode":"3820038200"}
{"title":"Restaurant des Rois","address":"5 Boulevard du Maréchal Leclerc5 Boulevard du Maréchal Leclerc","postCode":"0631006310"}
{"title":"L'Archeste","address":"79 rue de la Tour79 rue de la Tour","postCode":"7511675116"}
{"title":"1741","address":"22 Quai des Bateliers22 Quai des Bateliers","postCode":"6700067000"}
{"title":"Arpège","address":"84 Rue de Varenne84 Rue de Varenne","postCode":"7500775007"}
{"title":"La Grange de Belle-Église","address":"28 bd René-Aimé-Lagabrielle28 bd René-Aimé-Lagabrielle","postCode":"6054060540"}
{"title":"Le Saint-James","address":"3 pl. Camille-Hostein3 pl. Camille-Hostein","postCode":"3327033270"}
{"title":"Les Bories","address":"rte de l'Abbaye de Sénanquerte de l'Abbaye de Sénanque","postCode":"8422084220"}
{"title":"Toya","address":"av. Jean-Monnetav. Jean-Monnet","postCode":"5738057380"}
{"title":"Le Kintessence","address":"Rue des ClarinesRue des Clarines","postCode":"7312073120"}
{"title":"Le Clocher des Pères","address":"D213D213","postCode":"7313073130"}
{"title":"La Renaissance","address":"20 av. 2e-Division-Blindée20 av. 2e-Division-Blindée","postCode":"6120061200"}
{"title":"Pierre","address":"7-9 rue Joseph Dufour7-9 rue Joseph Dufour","postCode":"7100071000"}
{"title":"Relais Louis XIII","address":"8 Rue des Grands Augustins8 Rue des Grands Augustins","postCode":"7500675006"}
{"title":"Rackham","address":"27 pl. Lacaze Duthiers rčs de l'église27 pl. Lacaze Duthiers rčs de l'église","postCode":"2968029680"}
{"title":"La Table Breizh Café","address":"7 quai Thomas7 quai Thomas","postCode":"3526035260"}
{"title":"La Grignotière","address":"6 Rue Jean Jaures6 Rue Jean Jaures","postCode":"5959059590"}
{"title":"1920","address":"373 chemin des follières373 chemin des follières","postCode":"7412074120"}
{"title":"Le Musigny","address":"90 Avenue de Liege90 Avenue de Liege","postCode":"5930059300"}
{"title":"L'Arôme","address":"3 rue St-Philippe-du-Roule3 rue St-Philippe-du-Roule","postCode":"7500875008"}
{"title":"La Cachette","address":"Rue des CévennesRue des Cévennes","postCode":"2600026000"}
{"title":"La Vague d'Or","address":"Plage de BouillabaissePlage de Bouillabaisse","postCode":"8399083990"}
{"title":"Le Bec au Cauchois","address":"22 Rue André Fiquet22 Rue André Fiquet","postCode":"7654076540"}
{"title":"La Matelote","address":"80 Boulevard Ste Beuve80 Boulevard Ste Beuve","postCode":"6220062200"}
{"title":"L'Atelier du Peintre","address":"1 Rue Schongauer1 Rue Schongauer","postCode":"6800068000"}
{"title":"Château Cordeillan-Bages","address":"route des chateauxroute des chateaux","postCode":"3325033250"}
{"title":"Le France","address":"8 place Cupillard8 place Cupillard","postCode":"2513025130"}
{"title":"Stéphane Tournié - Les Jardins de l'Opéra","address":"1 place du Capitole1 place du Capitole","postCode":"3100031000"}
{"title":"La Table","address":"32 Rue de la Barre32 Rue de la Barre","postCode":"5900059000"}
{"title":"Meurin","address":"Rue de LillersRue de Lillers","postCode":"6235062350"}
{"title":"Les Loges","address":"6 r. du Boeuf6 r. du Boeuf","postCode":"6900569005"}
{"title":"Maximilien","address":"19a rte Ostheim19a rte Ostheim","postCode":"6834068340"}
{"title":"114, Faubourg","address":"114 r. Fg St-Honoré114 r. Fg St-Honoré","postCode":"7500875008"}
{"title":"La Table de Nans","address":"corniche du Liouquetcorniche du Liouquet","postCode":"1360013600"}
{"title":"Le Lido","address":"42 av. Napoléon-III42 av. Napoléon-III","postCode":"2011020110"}
{"title":"Auberge du Pont d'Acigné","address":"D392D392","postCode":"3553035530"}
{"title":"La Table du Gourmet","address":"5 rue 1ère Armée5 rue 1ère Armée","postCode":"6834068340"}
{"title":"Le Gourmet de Sèze","address":"125 Rue de Sèze125 Rue de Sèze","postCode":"6900669006"}
{"title":"Skab","address":"7 Rue de la République7 Rue de la République","postCode":"3000030000"}
{"title":"La Table de l'Alpaga","address":"66 Allée des Marmousets66 Allée des Marmousets","postCode":"7412074120"}
{"title":"Auberge de la Charme","address":"12 r. de la Charme12 r. de la Charme","postCode":"2137021370"}
{"title":"Le Saint-Martin","address":"Avenue des TempliersAvenue des Templiers","postCode":"0614006140"}
{"title":"Au Crocodile","address":"10 rue de L'Outre10 rue de L'Outre","postCode":"6700067000"}
{"title":"Jin","address":"6 Rue de la Sourdière6 Rue de la Sourdière","postCode":"7500175001"}
{"title":"L'Orangerie","address":"31 Avenue George-V31 Avenue George-V","postCode":"7500875008"}
{"title":"La Lorraine","address":"80 rue Principale80 rue Principale","postCode":"5733057330"}
{"title":"La Marine","address":"3 r. Marie-Lemonnier3 r. Marie-Lemonnier","postCode":"8533085330"}
{"title":"Le Bistro des Saveurs","address":"35 Rue de Sélestat35 Rue de Sélestat","postCode":"6721067210"}
{"title":"La Chèvre d'Or","address":"r. du Barrir. du Barri","postCode":"0636006360"}
{"title":"La Maison dans le Parc","address":"3 r. Ste-Catherine3 r. Ste-Catherine","postCode":"5400054000"}
{"title":"Copenhague","address":"142 AVENUE DES CHAMPS ELYSEES142 AVENUE DES CHAMPS ELYSEES","postCode":"7500875008"}
{"title":"Le Vieux Logis","address":"Le BourgLe Bourg","postCode":"2451024510"}
{"title":"Le 1947","address":"Cheval Blanc Courchevel - Le Jardin AlpinCheval Blanc Courchevel - Le Jardin Alpin","postCode":"7312073120"}
{"title":"Fontevraud Le Restaurant","address":"38 rue St-Jean-de-l'Habit38 rue St-Jean-de-l'Habit","postCode":"4959049590"}
{"title":"La Table de Manville","address":"Domaine de Manville - D27Domaine de Manville - D27","postCode":"1352013520"}
{"title":"La Palmeraie","address":"81 Boulevard de Gigaro81 Boulevard de Gigaro","postCode":"8342083420"}
{"title":"Le Grand Bleu","address":"43 av. de la Gare43 av. de la Gare","postCode":"2420024200"}
{"title":"Alan Geaam","address":"19 Rue Lauriston19 Rue Lauriston","postCode":"7501675016"}
{"title":"Le Pré - Xavier Beaudiment","address":"3 Route de la Baraque3 Route de la Baraque","postCode":"6383063830"}
{"title":"Auberge des Saints Pères","address":"212 av. de Nonneville212 av. de Nonneville","postCode":"9360093600"}
{"title":"Le Pavé d'Auge","address":"D49D49","postCode":"1443014430"}
{"title":"Auberge du Cellier","address":"1 Rue de Sainte-Eugénie1 Rue de Sainte-Eugénie","postCode":"6672066720"}
{"title":"Louison","address":"2750 route de la cride2750 route de la cride","postCode":"1361013610"}
{"title":"La Ferme de l'Hospital","address":"rte du golfrte du golf","postCode":"7416074160"}
{"title":"La Réserve Rimbaud","address":"820 Avenue de Saint-Maur820 Avenue de Saint-Maur","postCode":"3400034000"}
{"title":"Auberge Grand'Maison","address":"1 r. Léon-le-Cerf1 r. Léon-le-Cerf","postCode":"2253022530"}
{"title":"Elsa","address":"Monte-Carlo Beach - Avenue Princesse GraceMonte-Carlo Beach - Avenue Princesse Grace","postCode":"0619006190"}
{"title":"Les Trois Soleils de Montal","address":"St-Jean-LespinasseSt-Jean-Lespinasse","postCode":"4640046400"}
{"title":"Mavrommatis","address":"42 rue Daubenton42 rue Daubenton","postCode":"7500575005"}
{"title":"Casadelmar","address":"Route de la Plage de PalombaggiaRoute de la Plage de Palombaggia","postCode":"2013720137"}
{"title":"Emporio Armani Ristorante","address":"149 Boulevard Saint-Germain149 Boulevard Saint-Germain","postCode":"7500675006"}
{"title":"I Salti","address":"route du Reginuroute du Reginu","postCode":"2022620226"}
{"title":"La Maison des Bois - Marc Veyrat","address":"Chemin Rural de Manigod au Col de la Croix FryChemin Rural de Manigod au Col de la Croix Fry","postCode":"7423074230"}
{"title":"Flaveurs","address":"32 Grande-Rue32 Grande-Rue","postCode":"2600026000"}
{"title":"Stéphane Carbone","address":"14 r. de Courtonne14 r. de Courtonne","postCode":"1400014000"}
{"title":"Le Beaulieu","address":"34 Bis Place République34 Bis Place République","postCode":"7200072000"}
{"title":"L'Esquisse","address":"21 rue Royale21 rue Royale","postCode":"7400074000"}
{"title":"L'Axel","address":"43 r. de France43 r. de France","postCode":"7730077300"}
{"title":"Aida","address":"1 r. Pierre Leroux1 r. Pierre Leroux","postCode":"7500775007"}
{"title":"Maison Jeunet","address":"9 r. de l'Hôtel-de-Ville9 r. de l'Hôtel-de-Ville","postCode":"3960039600"}
{"title":"Auberge La Fenière","address":"D943D943","postCode":"8416084160"}
{"title":"Christopher Coutanceau","address":"Promenade de la ConcurrencePromenade de la Concurrence","postCode":"1700017000"}
{"title":"Dan B. - La Table de Ventabren","address":"r. F. -Mistralr. F. -Mistral","postCode":"1312213122"}
{"title":"L'Étang du Moulin","address":"5 chemin de l'Etang du Moulin5 chemin de l'Etang du Moulin","postCode":"2521025210"}
{"title":"Les Trois Rochers","address":"16 rue du Phare16 rue du Phare","postCode":"2912029120"}
{"title":"Une Île","address":"9 r. Max-Richard9 r. Max-Richard","postCode":"4900049000"}
{"title":"La Table du Connétable","address":"4 Rue du Connétable4 Rue du Connétable","postCode":"6050060500"}
{"title":"La Chassagnette","address":"route du Sambucroute du Sambuc","postCode":"1320013200"}
{"title":"Qui plume la Lune","address":"50 r. Amelot50 r. Amelot","postCode":"7501175011"}
{"title":"Le Passe Temps","address":"52 Rue Tronchet52 Rue Tronchet","postCode":"6900669006"}
{"title":"Likoké","address":"7 rte de Païolive7 rte de Païolive","postCode":"0714007140"}
{"title":"La Table du 11","address":"8 rue de la chancellerie8 rue de la chancellerie","postCode":"7800078000"}
{"title":"Albert 1er","address":"38 rte du Bouchet38 rte du Bouchet","postCode":"7440074400"}
{"title":"Le Champ des Lunes","address":"route de Roquefraîcheroute de Roquefraîche","postCode":"8436084360"}
{"title":"La Balette","address":"rte de Port-Vendresrte de Port-Vendres","postCode":"6619066190"}
{"title":"Prairial","address":"11 Rue Chavanne11 Rue Chavanne","postCode":"6900169001"}
{"title":"L'Atelier Yssoirien","address":"39 Boulevard Triozon-Bayle39 Boulevard Triozon-Bayle","postCode":"6350063500"}
{"title":"Maison Christian Étienne","address":"10 Rue de Mons10 Rue de Mons","postCode":"8400084000"}
{"title":"Le Vivier","address":"800 cours F. Peyre (rte de Carpentras)800 cours F. Peyre (rte de Carpentras)","postCode":"8480084800"}
{"title":"Auberge de la Brie","address":"14 av. Alphonse Boulingre14 av. Alphonse Boulingre","postCode":"7786077860"}
{"title":"Quai des Saveurs","address":"69 rue de la Gare69 rue de la Gare","postCode":"5730057300"}
{"title":"Buerehiesel","address":"dans le parc de l'Orangeriedans le parc de l'Orangerie","postCode":"6700067000"}
{"title":"Astrance","address":"4 r. Beethoven4 r. Beethoven","postCode":"7501675016"}
{"title":"Serge Vieira","address":"Château du CouffourChâteau du Couffour","postCode":"1511015110"}
{"title":"Le 7ème Continent","address":"35 av. Gén. -de-Gaulle35 av. Gén. -de-Gaulle","postCode":"6817068170"}
{"title":"La Table Saint-Crescent","address":"route de Perpignanroute de Perpignan","postCode":"1110011100"}
{"title":"Le Chabichou","address":"90 Route des Chenus90 Route des Chenus","postCode":"7312073120"}
{"title":"Les Climats","address":"41 rue de Lille41 rue de Lille","postCode":"7500775007"}
{"title":"Passage 53","address":"53 passage des Panoramas53 passage des Panoramas","postCode":"7500275002"}
{"title":"Le Kaïku","address":"17 r. de la République17 r. de la République","postCode":"6450064500"}
{"title":"Château de Mirambeau","address":"1 Avenue des Comtes Duchatel1 Avenue des Comtes Duchatel","postCode":"1715017150"}
{"title":"Au 14 Février","address":"2 r. du Portail2 r. du Portail","postCode":"3610036100"}
{"title":"Table des Frères Ibarboure","address":"chemin Ttalieneachemin Ttalienea","postCode":"6421064210"}
{"title":"Py-r","address":"19 descente de la Halle-aux-Poissons19 descente de la Halle-aux-Poissons","postCode":"3100031000"}
{"title":"La Grenouillère","address":"19 r. de la Grenouillère19 r. de la Grenouillère","postCode":"6217062170"}
{"title":"Les Trois Dômes","address":"20 quai Gailleton20 quai Gailleton","postCode":"6900269002"}
{"title":"Guy Lassausaie","address":"r. de Belle-Siser. de Belle-Sise","postCode":"6938069380"}
{"title":"Le George","address":"31 Avenue George V31 Avenue George V","postCode":"7500875008"}
{"title":"Restaurant de Lauzun","address":"3 bd de l'Esplanade3 bd de l'Esplanade","postCode":"3415034150"}
{"title":"Le Puits St-Jacques","address":"av. Victor-Capoulav. Victor-Capoul","postCode":"3260032600"}
{"title":"La Table d'Olivier","address":"3 r. St-Ambroise3 r. St-Ambroise","postCode":"1910019100"}
{"title":"L'Atelier de Joël Robuchon - Étoile","address":"133 av. des Champs-Élysées133 av. des Champs-Élysées","postCode":"7500875008"}
{"title":"La Bastide de Capelongue","address":"Chemin des CabanesChemin des Cabanes","postCode":"8448084480"}
{"title":"L'Aquarelle","address":"71 A rte du Montil71 A rte du Montil","postCode":"1792017920"}
{"title":"Maison Prévôt","address":"353 av. de Verdun353 av. de Verdun","postCode":"8430084300"}
{"title":"Avel Vor","address":"25 r. de Locmalo25 r. de Locmalo","postCode":"5629056290"}
{"title":"Ze Kitchen Galerie","address":"4 r. des Grands-Augustins4 r. des Grands-Augustins","postCode":"7500675006"}
{"title":"La Tour","address":"31 Nouvelle-Place31 Nouvelle-Place","postCode":"1830018300"}
{"title":"Terre-Mer","address":"16 r. du Jeu-de-Paume16 r. du Jeu-de-Paume","postCode":"5640056400"}
{"title":"La Table des Blot - Auberge du Château","address":"1 Grande-Rue1 Grande-Rue","postCode":"7872078720"}
{"title":"Les Chênes Verts","address":"rte de Villecrozerte de Villecroze","postCode":"8369083690"}
{"title":"La Petite Maison de Cucuron","address":"pl. de l'Étangpl. de l'Étang","postCode":"8416084160"}
{"title":"SaQuaNa","address":"22 pl. Hamelin22 pl. Hamelin","postCode":"1460014600"}
{"title":"La Promenade","address":"2 promenade Jean-Jaurès2 promenade Jean-Jaurès","postCode":"3159031590"}
{"title":"En Pleine Nature","address":"6 pl. de la Mairie6 pl. de la Mairie","postCode":"3113031130"}
{"title":"Mariottat","address":"25 r. L.-Vivent25 r. L.-Vivent","postCode":"4700047000"}
{"title":"Roscanvec","address":"17 r. des Halles17 r. des Halles","postCode":"5600056000"}
{"title":"Le Mas du Langoustier","address":"","postCode":"8340083400"}
{"title":"Umami","address":"8 r. des Dentelles8 r. des Dentelles","postCode":"6700067000"}
{"title":"L'Atelier de Joël Robuchon - St-Germain","address":"5 r. de Montalembert5 r. de Montalembert","postCode":"7500775007"}
{"title":"Michel Sarran","address":"21 bd A.-Duportal21 bd A.-Duportal","postCode":"3100031000"}
{"title":"Hostellerie de Levernois","address":"15 r. du Golf15 r. du Golf","postCode":"2120021200"}
{"title":"La Table de Chaintré","address":"72 pl. du Luminaire72 pl. du Luminaire","postCode":"7157071570"}
{"title":"Le Puits du Trésor","address":"21 rte des Quatre-Châteaux21 rte des Quatre-Châteaux","postCode":"1160011600"}
{"title":"Le Bistrot de Lagarde","address":"rte d'Aptrte d'Apt","postCode":"8440084400"}
{"title":"Le Gambetta","address":"12 r. Gambetta12 r. Gambetta","postCode":"4940049400"}
{"title":"Michel Trama","address":"52 r. Royale52 r. Royale","postCode":"4727047270"}
{"title":"Le Chiquito","address":"3 r. de l'Oise, La Bonneville3 r. de l'Oise, La Bonneville","postCode":"9554095540"}
{"title":"Au Déjeuner de Sousceyrac","address":"r. Pierre-Benoitr. Pierre-Benoit","postCode":"4619046190"}
{"title":"Le Cercle","address":"44 bd Lahitolle44 bd Lahitolle","postCode":"1800018000"}
{"title":"Pertica","address":"15 pl. de la République15 pl. de la République","postCode":"4110041100"}
{"title":"Cayola","address":"76 promenade de Cayola76 promenade de Cayola","postCode":"8518085180"}
{"title":"La Closerie","address":"bd des Platanesbd des Platanes","postCode":"8424084240"}
{"title":"Au Souper Fin","address":"1 rte de Clères1 rte de Clères","postCode":"7669076690"}
{"title":"Le Lièvre Gourmand","address":"28 quai du Châtelet28 quai du Châtelet","postCode":"4500045000"}
{"title":"Septime","address":"80 r. de Charonne80 r. de Charonne","postCode":"7501175011"}
{"title":"La Ribaudière","address":"2 pl. du Port2 pl. du Port","postCode":"1620016200"}
{"title":"Meulien","address":"1 bis av. des Alpes1 bis av. des Alpes","postCode":"7170071700"}
{"title":"L'Essentiel","address":"8 r. de la Clarté8 r. de la Clarté","postCode":"2400024000"}
{"title":"Brikéténia","address":"142 r. de l'Église142 r. de l'Église","postCode":"6421064210"}
{"title":"Auberge du Vert Mont","address":"1318 r. du Mont-Noir1318 r. du Mont-Noir","postCode":"5929959299"}
{"title":"La Coquerie","address":"1 chemin du Cimetière-Marin1 chemin du Cimetière-Marin","postCode":"3420034200"}
{"title":"Le Favre d'Anne","address":"21 bd du Mar.-Foch21 bd du Mar.-Foch","postCode":"4900049000"}
{"title":"Le Camélia","address":"7 quai Georges Clemenceau7 quai Georges Clemenceau","postCode":"7838078380"}
{"title":"Le Village","address":"3 Grande-Rue3 Grande-Rue","postCode":"7816078160"}
{"title":"La Table d'Eugène","address":"18 r. Eugène-Sue18 r. Eugène-Sue","postCode":"7501875018"}
{"title":"Le Bon Accueil","address":"32 Grande-Rue32 Grande-Rue","postCode":"2516025160"}
{"title":"La Rastègue","address":"48 bd du Levant48 bd du Levant","postCode":"8323083230"}
{"title":"Aux Terrasses","address":"18 av. du 23-Janvier18 av. du 23-Janvier","postCode":"7170071700"}
{"title":"Miraflores","address":"60 r. Garibaldi60 r. Garibaldi","postCode":"6900669006"}
{"title":"Le Foch","address":"37 bd Foch37 bd Foch","postCode":"5110051100"}
{"title":"Auberge du Dun","address":"3 rte de Dieppe3 rte de Dieppe","postCode":"7674076740"}
{"title":"Le Park 45","address":"45 bd de la Croisette45 bd de la Croisette","postCode":"0640006400"}
{"title":"La Marande","address":"lieu-dit Mirandelieu-dit Mirande","postCode":"7126071260"}
{"title":"La Gloire","address":"74 av. du Gén.-de-Gaulle74 av. du Gén.-de-Gaulle","postCode":"4520045200"}
{"title":"Auberge St-Jean","address":"8 r. du Pont8 r. du Pont","postCode":"3342033420"}
{"title":"Vieux Pont","address":"","postCode":"1239012390"}
{"title":"Le Belvédère","address":"11 rte du Maquis-Jean-Pierre11 rte du Maquis-Jean-Pierre","postCode":"1234012340"}
{"title":"David Toutain","address":"29 r. Surcouf29 r. Surcouf","postCode":"7500775007"}
{"title":"L'Atlantide 1874 - Maison Guého","address":"5 r. de l'Hermitage5 r. de l'Hermitage","postCode":"4410044100"}
{"title":"Tour d'Argent","address":"15 quai de la Tournelle15 quai de la Tournelle","postCode":"7500575005"}
{"title":"Le Moulin d'Alotz","address":"chemin Alotz-Errotachemin Alotz-Errota","postCode":"6420064200"}
{"title":"Le Cerf","address":"30 r. du Gén.-de-Gaulle30 r. du Gén.-de-Gaulle","postCode":"6752067520"}
{"title":"Le Pily","address":"39 Grande-Rue39 Grande-Rue","postCode":"5010050100"}
{"title":"Château du Mont Joly","address":"6 r. du Mont-Joly6 r. du Mont-Joly","postCode":"3910039100"}
{"title":"Étincelles - La Gentilhommière","address":"","postCode":"2444024440"}
{"title":"L'Aubergade","address":"78 rte Nationale78 rte Nationale","postCode":"8048080480"}
{"title":"La Table des Cordeliers","address":"1 r. des Cordeliers1 r. des Cordeliers","postCode":"3210032100"}
{"title":"Le Jules Verne","address":"2<E>ème</E> étage Tour Eiffel2<E>ème</E> étage Tour Eiffel","postCode":"7500775007"}
{"title":"Le Prieuré","address":"r. de la Mairier. de la Mairie","postCode":"4282042820"}
{"title":"Mon Plaisir","address":"22 lieu-dit Journal22 lieu-dit Journal","postCode":"2519025190"}
{"title":"Au 14 Février","address":"36 r. du Bœuf36 r. du Bœuf","postCode":""}
{"title":"Côté Jardin","address":"14 rte de Bourges14 rte de Bourges","postCode":"4550045500"}
{"title":"Jérémy Galvan","address":"Rue du BoeufRue du Boeuf","postCode":"6900569005"}
{"title":"La Ville Blanche","address":"La Ville BlancheLa Ville Blanche","postCode":"2230022300"}
{"title":"Lou Cigalon-Maison Martin","address":"6 bd Carnot6 bd Carnot","postCode":"0656006560"}
{"title":"La Roya","address":"plage de la Royaplage de la Roya","postCode":"2021720217"}
{"title":"Le Prieuré","address":"7 pl. du Chapitre7 pl. du Chapitre","postCode":"3040030400"}
{"title":"La Robe","address":"3 pl. Reveillère-Lepeaux3 pl. Reveillère-Lepeaux","postCode":"8560085600"}
{"title":"Château Blanchard","address":"36 rte de St-Galmier36 rte de St-Galmier","postCode":"4214042140"}
{"title":"Le Pêché Gourmand","address":"2 rte de Gap2 rte de Gap","postCode":"0510005100"}
{"title":"La Fourchette du Printemps","address":"30 r. du Printemps30 r. du Printemps","postCode":"7501775017"}
{"title":"À Contre Sens","address":"8-10 r. des Croisiers8-10 r. des Croisiers","postCode":"1400014000"}
{"title":"Auberge Le Prieuré","address":"4 Grand'Rue4 Grand'Rue","postCode":"4731047310"}
{"title":"Table - Bruno Verjus","address":"3 r. de Prague3 r. de Prague","postCode":"7501275012"}
{"title":"Haut Bonheur de la Table","address":"18 Grand-Place18 Grand-Place","postCode":"5967059670"}
{"title":"L'Éveil des Sens","address":"429 bd Paul-Lintier429 bd Paul-Lintier","postCode":"5310053100"}
{"title":"Le Moulin des Quatre Saisons","address":"r. Gallienir. Gallieni","postCode":"7220072200"}
{"title":"ES","address":"91 r. de Grenelle91 r. de Grenelle","postCode":"7500775007"}
{"title":"Val d'Auge","address":"805 av. du Gén.-de-Gaulle805 av. du Gén.-de-Gaulle","postCode":"5991059910"}
{"title":"L'Alchémille","address":"53 rte de Lapoutroie53 rte de Lapoutroie","postCode":"6824068240"}
{"title":"Le Sérac","address":"22 r. de la Comtesse22 r. de la Comtesse","postCode":"7417074170"}
{"title":"Au 14 Février","address":"Le Plâtre-DurandLe Plâtre-Durand","postCode":"7157071570"}
{"title":"L'Orée de la Forêt","address":"255 r. de la Forêt255 r. de la Forêt","postCode":"6060060600"}
{"title":"Palm Beach","address":"route des Iles Sanguinairesroute des Iles Sanguinaires","postCode":"2000020000"}
{"title":"Yam'Tcha","address":"121 r. St-Honoré121 r. St-Honoré","postCode":"7500175001"}
{"title":"La Bonne Auberge","address":"15 r. Nationale15 r. Nationale","postCode":"5735057350"}
{"title":"Apicius","address":"20 r. d'Artois20 r. d'Artois","postCode":"7500875008"}
{"title":"Henri et Joseph","address":"4 r. Léo-le-Bourgo4 r. Léo-le-Bourgo","postCode":"5610056100"}
{"title":"Les Pyrénées","address":"19 pl. Ch.-de-Gaulle19 pl. Ch.-de-Gaulle","postCode":"6422064220"}
{"title":"Saturne","address":"17 r. N.-D.-des-Victoires17 r. N.-D.-des-Victoires","postCode":"7500275002"}
{"title":"Gaya Rive Gauche par Pierre Gagnaire","address":"44 r. du Bac44 r. du Bac","postCode":"7500775007"}
{"title":"Château de la Treyne","address":"","postCode":"4620046200"}
{"title":"Intuition","address":"1 r. Alsace-Lorraine1 r. Alsace-Lorraine","postCode":"5000050000"}
{"title":"Le Neuvième Art","address":"173 r. Cuvier173 r. Cuvier","postCode":"6900669006"}
{"title":"Gavroche","address":"4 r. Klein4 r. Klein","postCode":"6700067000"}
{"title":"Les Tables de Gaspard","address":"r. Principaler. Principale","postCode":"0560005600"}
{"title":"St-James Paris","address":"43 av. Bugeaud43 av. Bugeaud","postCode":"7511675116"}
{"title":"Le Montgomerie","address":"356 rte de l'Altiport356 rte de l'Altiport","postCode":"7312073120"}
{"title":"Le Château de Sable","address":"38 r. de l'Europe38 r. de l'Europe","postCode":"2984029840"}
{"title":"Mickaël Féval","address":"11 Petite-Rue-St-Jean11 Petite-Rue-St-Jean","postCode":"1310013100"}
{"title":"Laurent","address":"41 av. Gabriel41 av. Gabriel","postCode":"7500875008"}
{"title":"Auberge St-Walfrid","address":"58 r. de Grosbliederstroff58 r. de Grosbliederstroff","postCode":"5720057200"}
{"title":"Transparence \"La Table de Patrick Fréchin\"","address":"28 r. Stanislas28 r. Stanislas","postCode":"5400054000"}
{"title":"Clovis","address":"21 Grand-Rue21 Grand-Rue","postCode":"0614006140"}
{"title":"Allium","address":"88 bd de Créac'h-Gwen88 bd de Créac'h-Gwen","postCode":"2900029000"}
{"title":"Maison Crouzil et Hôtel L'Écrin","address":"20 les Quais20 les Quais","postCode":"2213022130"}
{"title":"Le Pot d'Étain","address":"4 av. de la République4 av. de la République","postCode":"9040090400"}
{"title":"L'Hysope","address":"25 r. de l'Aurore25 r. de l'Aurore","postCode":"1722017220"}
{"title":"Étude","address":"14 r. Bouquet-de-Longchamp14 r. Bouquet-de-Longchamp","postCode":"7501675016"}
{"title":"Château de Codignat","address":"Bort l'EtangBort l'Etang","postCode":"6319063190"}
{"title":"L'Aromate","address":"2 r. Gustave Deloye2 r. Gustave Deloye","postCode":"0600006000"}
{"title":"Les Genêts","address":"21 bis Rue de l'Océan21 bis Rue de l'Océan","postCode":"8547085470"}
{"title":"Le St-Martin","address":"1 r. du Gén.-Leclerc1 r. du Gén.-Leclerc","postCode":"2520025200"}
{"title":"L'Océan","address":"43 bd Thiers43 bd Thiers","postCode":"6450064500"}
{"title":"Baumanière 1850","address":"rte de Bellecôterte de Bellecôte","postCode":"7312073120"}
{"title":"Pages","address":"4 r. Auguste-Vacquerie4 r. Auguste-Vacquerie","postCode":"7501675016"}
{"title":"La Vieille Tour","address":"75 r. de la Tour75 r. de la Tour","postCode":"2219022190"}
{"title":"La Marine","address":"11 r. de Paris11 r. de Paris","postCode":"5027050270"}
{"title":"Azimut","address":"273 r. de la Madelon273 r. de la Madelon","postCode":"7312073120"}
{"title":"Garance","address":"34 r. St-Dominique34 r. St-Dominique","postCode":"7500775007"}
{"title":"Le Grand Restaurant - Jean-François Piège","address":"7 r. d'Aguesseau7 r. d'Aguesseau","postCode":"7500875008"}
{"title":"Rodolphe","address":"35 r. Percière35 r. Percière","postCode":"7600076000"}
{"title":"L'Émulsion","address":"57 rte de Lyon57 rte de Lyon","postCode":"3808038080"}
{"title":"Le Clos St-Pierre","address":"pl. de la Mairiepl. de la Mairie","postCode":"0665006650"}
{"title":"Le Pousse-Pied","address":"84 bd des Vendéens84 bd des Vendéens","postCode":"8536085360"}
{"title":"Garopapilles","address":"62 r. Abbé-de-L'Epée62 r. Abbé-de-L'Epée","postCode":"3300033000"}
{"title":"Auberge du Paradis","address":"Le Plâtre-DurandLe Plâtre-Durand","postCode":"7157071570"}
{"title":"Le Pavillon","address":"av. du Vergerav. du Verger","postCode":"6252062520"}
{"title":"Racine","address":"6 pl. Godinot6 pl. Godinot","postCode":"5110051100"}
{"title":"Château de Vauchoux","address":"","postCode":"7017070170"}
{"title":"Le Marcq","address":"944 av. de la République944 av. de la République","postCode":"5970059700"}
{"title":"U Santa Marina","address":"Marina di Santa GiuliaMarina di Santa Giulia","postCode":"2013720137"}
{"title":"Pèir","address":"r. de la Comber. de la Combe","postCode":"8422084220"}
{"title":"Palégrié","address":"Les RitonsLes Ritons","postCode":"3825038250"}
{"title":"La Table by La Villa","address":"chemin de Notre-Dame-de-la-Serrachemin de Notre-Dame-de-la-Serra","postCode":"2026020260"}
{"title":"Pertinence","address":"29 r. de l'Exposition29 r. de l'Exposition","postCode":"7500775007"}
{"title":"Le Chateaubriand","address":"129 av. Parmentier129 av. Parmentier","postCode":"7501175011"}
{"title":"Jérôme Feck","address":"19 pl. Mgr-Tissier19 pl. Mgr-Tissier","postCode":"5100051000"}
{"title":"Pierre Reboul","address":"260 r. Guillaume-du-Vair260 r. Guillaume-du-Vair","postCode":"1354613546"}
{"title":"Ken Kawasaki","address":"15 r. Caulaincourt15 r. Caulaincourt","postCode":"7501875018"}
{"title":"Le Skiff Club","address":"1 av. Louis-Gaume1 av. Louis-Gaume","postCode":"3326033260"}
{"title":"Akrame","address":"7 r. Tronchet7 r. Tronchet","postCode":"7500875008"}
{"title":"Le Grand Cap","address":"chemin du Pharechemin du Phare","postCode":"1137011370"}
{"title":"Restaurant H","address":"13 r. Jean-Beausire13 r. Jean-Beausire","postCode":"7500475004"}
{"title":"Sushi B","address":"5 r. Rameau5 r. Rameau","postCode":"7500275002"}
{"title":"Divellec","address":"18 r. Fabert18 r. Fabert","postCode":"7500775007"}
{"title":"La Merise","address":"7 r. d'Eschbach7 r. d'Eschbach","postCode":"6758067580"}
{"title":"Jean Chauvel","address":"33 av. Général-Leclerc33 av. Général-Leclerc","postCode":"9210092100"}
{"title":"Montée","address":"9 r. Léopold-Robert9 r. Léopold-Robert","postCode":"7501475014"}
{"title":"L'Auberge de Bagatelle","address":"489 av. Bollée489 av. Bollée","postCode":"7200072000"}
{"title":"Ima","address":"20 bd de la Tour-d'Auvergne20 bd de la Tour-d'Auvergne","postCode":"3500035000"}
{"title":"Comice","address":"31 av. de Versailles31 av. de Versailles","postCode":"7501675016"}
{"title":"La Table d'Hôtes - Le Quatrième Mur","address":"2 pl. de la Comédie2 pl. de la Comédie","postCode":"3300033000"}
{"title":"La Table de la Ferme","address":"Vallée de l'OrtoloVallée de l'Ortolo","postCode":"2010020100"}
{"title":"Jean Sulpice","address":"303 rte du Port303 rte du Port","postCode":"7429074290"}
{"title":"Quinsou","address":"33 r. de l'Abbé-Grégoire33 r. de l'Abbé-Grégoire","postCode":"7500675006"}
